<osm version="0.6"><tag k="addr:housenumber" v="3585" /><tag k="addr:postcode" v="94550" /><tag k="addr:city" v="" /><tag k="addr:street" v="Greenville Road" /><node id="-508219" lat="37.6704636226" lon="-121.698029217" visible="true"><tag k="addr:housenumber" v="3585" /><tag k="addr:postcode" v="94550" /><tag k="addr:unit" v="1" /><tag k="addr:city" v="" /><tag k="addr:street" v="Greenville Road" /></node><node id="-508220" lat="37.6703693318" lon="-121.697961983" visible="true"><tag k="addr:housenumber" v="3585" /><tag k="addr:postcode" v="94550" /><tag k="addr:unit" v="2" /><tag k="addr:city" v="" /><tag k="addr:street" v="Greenville Road" /></node><node id="-508221" lat="37.6702902569" lon="-121.697799407" visible="true"><tag k="addr:housenumber" v="3585" /><tag k="addr:postcode" v="94550" /><tag k="addr:unit" v="3" /><tag k="addr:city" v="" /><tag k="addr:street" v="Greenville Road" /></node><node id="-508222" lat="37.6703527095" lon="-121.697728722" visible="true"><tag k="addr:housenumber" v="3585" /><tag k="addr:postcode" v="94550" /><tag k="addr:unit" v="4" /><tag k="addr:city" v="" /><tag k="addr:street" v="Greenville Road" /></node></osm>