<osm version="0.6"><tag k="addr:housenumber" v="8100" /><tag k="addr:postcode" v="94539" /><tag k="addr:city" v="Sunol" /><tag k="addr:street" v="Mill Creek Road" /><node id="-84893" lat="37.5253619444" lon="-121.875719006" visible="true"><tag k="addr:housenumber" v="8116" /><tag k="addr:postcode" v="94539" /><tag k="addr:city" v="Sunol" /><tag k="addr:street" v="Mill Creek Road" /></node><node id="-84894" lat="37.562983812" lon="-121.917492485" visible="true"><tag k="addr:housenumber" v="41798" /><tag k="addr:postcode" v="94539" /><tag k="addr:city" v="Sunol" /><tag k="addr:street" v="Vargas Road" /></node><node id="-84895" lat="37.5610068559" lon="-121.919124962" visible="true"><tag k="addr:housenumber" v="41790" /><tag k="addr:postcode" v="94539" /><tag k="addr:city" v="Sunol" /><tag k="addr:street" v="Vargas Road" /></node><node id="-84896" lat="37.5605241293" lon="-121.917686157" visible="true"><tag k="addr:housenumber" v="41752" /><tag k="addr:postcode" v="94539" /><tag k="addr:city" v="Sunol" /><tag k="addr:street" v="Vargas Road" /></node><node id="-86752" lat="37.5512675614" lon="-121.899467351" visible="true"><tag k="addr:housenumber" v="5003" /><tag k="addr:postcode" v="94586" /><tag k="addr:city" v="Sunol" /><tag k="addr:street" v="Sheridan Road" /></node><node id="-86753" lat="37.5425268356" lon="-121.883748934" visible="true"><tag k="addr:housenumber" v="7555" /><tag k="addr:postcode" v="94586" /><tag k="addr:city" v="Sunol" /><tag k="addr:street" v="Sheridan Road" /></node><node id="-86754" lat="37.5383774516" lon="-121.878185864" visible="true"><tag k="addr:housenumber" v="8101" /><tag k="addr:postcode" v="94586" /><tag k="addr:city" v="Sunol" /><tag k="addr:street" v="Sheridan Road" /></node><node id="-86755" lat="37.5078463078" lon="-121.878306418" visible="true"><tag k="addr:housenumber" v="6903" /><tag k="addr:postcode" v="94586" /><tag k="addr:city" v="Sunol" /><tag k="addr:street" v="Mill Creek Road" /></node><node id="-86756" lat="37.5585049134" lon="-121.883201122" visible="true"><tag k="addr:housenumber" v="5135" /><tag k="addr:postcode" v="94586" /><tag k="addr:city" v="Sunol" /><tag k="addr:street" v="Andrade Road" /></node><node id="-86757" lat="37.5574120078" lon="-121.867253534" visible="true"><tag k="addr:housenumber" v="6503" /><tag k="addr:postcode" v="94586" /><tag k="addr:city" v="Sunol" /><tag k="addr:street" v="Calaveras Road" /></node><node id="-86758" lat="37.5570305626" lon="-121.881583276" visible="true"><tag k="addr:housenumber" v="5140" /><tag k="addr:postcode" v="94586" /><tag k="addr:city" v="Sunol" /><tag k="addr:street" v="Sheridan Road" /></node><node id="-86759" lat="37.5516178406" lon="-121.888660374" visible="true"><tag k="addr:housenumber" v="5115" /><tag k="addr:postcode" v="94586" /><tag k="addr:city" v="Sunol" /><tag k="addr:street" v="Sheridan Road" /></node><node id="-86760" lat="37.553946176" lon="-121.881069031" visible="true"><tag k="addr:housenumber" v="7484" /><tag k="addr:postcode" v="94586" /><tag k="addr:city" v="Sunol" /><tag k="addr:street" v="Sheridan Road" /></node><node id="-86761" lat="37.5552871086" lon="-121.88647115" visible="true"><tag k="addr:housenumber" v="5447" /><tag k="addr:postcode" v="94586" /><tag k="addr:city" v="Sunol" /><tag k="addr:street" v="Sheridan Road" /></node><node id="-86762" lat="37.554043623" lon="-121.886049726" visible="true"><tag k="addr:housenumber" v="5463" /><tag k="addr:postcode" v="94586" /><tag k="addr:city" v="Sunol" /><tag k="addr:street" v="Sheridan Road" /></node><node id="-86763" lat="37.5532420136" lon="-121.885505664" visible="true"><tag k="addr:housenumber" v="5499" /><tag k="addr:postcode" v="94586" /><tag k="addr:city" v="Sunol" /><tag k="addr:street" v="Sheridan Road" /></node><node id="-86764" lat="37.5528318268" lon="-121.884246944" visible="true"><tag k="addr:housenumber" v="7455" /><tag k="addr:postcode" v="94586" /><tag k="addr:city" v="Sunol" /><tag k="addr:street" v="Sheridan Road" /></node><node id="-86765" lat="37.5505077757" lon="-121.883942945" visible="true"><tag k="addr:housenumber" v="7495" /><tag k="addr:postcode" v="94586" /><tag k="addr:city" v="Sunol" /><tag k="addr:street" v="Sheridan Road" /></node><node id="-86766" lat="37.5508126896" lon="-121.879793346" visible="true"><tag k="addr:housenumber" v="7498" /><tag k="addr:postcode" v="94586" /><tag k="addr:city" v="Sunol" /><tag k="addr:street" v="Sheridan Road" /></node><node id="-86767" lat="37.5497867228" lon="-121.87971862" visible="true"><tag k="addr:housenumber" v="7500" /><tag k="addr:postcode" v="94586" /><tag k="addr:city" v="Sunol" /><tag k="addr:street" v="Sheridan Road" /></node><node id="-86769" lat="37.5470632831" lon="-121.885477467" visible="true"><tag k="addr:housenumber" v="7507" /><tag k="addr:postcode" v="94586" /><tag k="addr:city" v="Sunol" /><tag k="addr:street" v="Sheridan Road" /></node><node id="-86770" lat="37.5455008638" lon="-121.885934804" visible="true"><tag k="addr:housenumber" v="7511" /><tag k="addr:postcode" v="94586" /><tag k="addr:city" v="Sunol" /><tag k="addr:street" v="Sheridan Road" /></node><node id="-86771" lat="37.5596743539" lon="-121.914096876" visible="true"><tag k="addr:housenumber" v="41888" /><tag k="addr:postcode" v="94586" /><tag k="addr:city" v="Sunol" /><tag k="addr:street" v="Vargas Road" /></node><node id="-86772" lat="37.5749639345" lon="-121.879127391" visible="true"><tag k="addr:housenumber" v="7645" /><tag k="addr:postcode" v="94586" /><tag k="addr:city" v="Sunol" /><tag k="addr:street" v="Athenour Way" /></node><node id="-86773" lat="37.5746980824" lon="-121.881202162" visible="true"><tag k="addr:housenumber" v="7587" /><tag k="addr:postcode" v="94586" /><tag k="addr:city" v="Sunol" /><tag k="addr:street" v="Athenour Way" /></node><node id="-86774" lat="37.5746111221" lon="-121.879451842" visible="true"><tag k="addr:housenumber" v="7587" /><tag k="addr:postcode" v="94586" /><tag k="addr:city" v="Sunol" /><tag k="addr:street" v="Mission Road" /></node><node id="-86775" lat="37.573778935" lon="-121.883285642" visible="true"><tag k="addr:housenumber" v="3000" /><tag k="addr:postcode" v="94586" /><tag k="addr:city" v="Sunol" /><tag k="addr:street" v="Andrade Road" /></node><node id="-86776" lat="37.5721632643" lon="-121.882594529" visible="true"><tag k="addr:housenumber" v="3220" /><tag k="addr:postcode" v="94586" /><tag k="addr:city" v="Sunol" /><tag k="addr:street" v="Andrade Road" /></node><node id="-86777" lat="37.573453741" lon="-121.887797651" visible="true"><tag k="addr:housenumber" v="6467" /><tag k="addr:postcode" v="94586" /><tag k="addr:city" v="Sunol" /><tag k="addr:street" v="Mission Road" /></node><node id="-86778" lat="37.5723562393" lon="-121.889846841" visible="true"><tag k="addr:housenumber" v="6467" /><tag k="addr:postcode" v="94586" /><tag k="addr:city" v="Sunol" /><tag k="addr:street" v="Mission Road" /></node><node id="-86779" lat="37.5720573813" lon="-121.886580429" visible="true"><tag k="addr:housenumber" v="3111" /><tag k="addr:postcode" v="94586" /><tag k="addr:city" v="Sunol" /><tag k="addr:street" v="Andrade Road" /></node><node id="-86780" lat="37.5694672794" lon="-121.881770021" visible="true"><tag k="addr:housenumber" v="3340" /><tag k="addr:postcode" v="94586" /><tag k="addr:city" v="Sunol" /><tag k="addr:street" v="Andrade Road" /></node><node id="-86781" lat="37.5696790954" lon="-121.899301264" visible="true"><tag k="addr:housenumber" v="5810" /><tag k="addr:postcode" v="94586" /><tag k="addr:city" v="Sunol" /><tag k="addr:street" v="Mission Road" /></node><node id="-86782" lat="37.5713065252" lon="-121.891896168" visible="true"><tag k="addr:housenumber" v="5987" /><tag k="addr:postcode" v="94586" /><tag k="addr:city" v="Sunol" /><tag k="addr:street" v="Mission Road" /></node><node id="-86783" lat="37.5708629808" lon="-121.885944454" visible="true"><tag k="addr:housenumber" v="3277" /><tag k="addr:postcode" v="94586" /><tag k="addr:city" v="Sunol" /><tag k="addr:street" v="Andrade Road" /></node><node id="-86784" lat="37.57011148" lon="-121.89428957" visible="true"><tag k="addr:housenumber" v="5815" /><tag k="addr:postcode" v="94586" /><tag k="addr:city" v="Sunol" /><tag k="addr:street" v="Mission Road" /></node><node id="-86785" lat="37.568999656" lon="-121.89066186" visible="true"><tag k="addr:housenumber" v="3455" /><tag k="addr:postcode" v="94586" /><tag k="addr:city" v="Sunol" /><tag k="addr:street" v="Andrade Road" /></node><node id="-86786" lat="37.5696858928" lon="-121.88558581" visible="true"><tag k="addr:housenumber" v="3313" /><tag k="addr:postcode" v="94586" /><tag k="addr:city" v="Sunol" /><tag k="addr:street" v="Andrade Road" /></node><node id="-86787" lat="37.5662183048" lon="-121.890324811" visible="true"><tag k="addr:housenumber" v="3515" /><tag k="addr:postcode" v="94586" /><tag k="addr:city" v="Sunol" /><tag k="addr:street" v="Andrade Road" /></node><node id="-86788" lat="37.5856577636" lon="-121.921966986" visible="true"><tag k="addr:housenumber" v="3163" /><tag k="addr:postcode" v="94586" /><tag k="addr:city" v="Sunol" /><tag k="addr:street" v="Morrison Canyon Road" /></node><node id="-86789" lat="37.5805926012" lon="-121.913951306" visible="true"><tag k="addr:housenumber" v="3505" /><tag k="addr:postcode" v="94586" /><tag k="addr:city" v="Sunol" /><tag k="addr:street" v="Morrison Canyon Road" /></node><node id="-86790" lat="37.5752203664" lon="-121.92493766" visible="true"><tag k="addr:housenumber" v="2239" /><tag k="addr:postcode" v="94586" /><tag k="addr:city" v="Sunol" /><tag k="addr:street" v="Morrison Canyon Road" /></node><node id="-86791" lat="37.5546362227" lon="-121.902589165" visible="true"><tag k="addr:housenumber" v="4271" /><tag k="addr:postcode" v="94586" /><tag k="addr:city" v="Sunol" /><tag k="addr:street" v="Sheridan Road" /></node><node id="-86792" lat="37.5619020107" lon="-121.865287062" visible="true"><tag k="addr:housenumber" v="8501" /><tag k="addr:postcode" v="94586" /><tag k="addr:city" v="Sunol" /><tag k="addr:street" v="Calaveras Road" /></node><node id="-86793" lat="37.5600529775" lon="-121.896570081" visible="true"><tag k="addr:housenumber" v="5100" /><tag k="addr:postcode" v="94586" /><tag k="addr:city" v="Sunol" /><tag k="addr:street" v="Sheridan Road" /></node><node id="-86794" lat="37.5602706539" lon="-121.890349524" visible="true"><tag k="addr:housenumber" v="5280" /><tag k="addr:postcode" v="94586" /><tag k="addr:city" v="Sunol" /><tag k="addr:street" v="Sheridan Road" /></node><node id="-86797" lat="37.5198489633" lon="-121.867212328" visible="true"><tag k="addr:housenumber" v="9000" /><tag k="addr:postcode" v="94586" /><tag k="addr:city" v="Sunol" /><tag k="addr:street" v="Mill Creek Road" /></node><node id="-86799" lat="37.5176735844" lon="-121.855037168" visible="true"><tag k="addr:housenumber" v="12163" /><tag k="addr:postcode" v="94586" /><tag k="addr:city" v="Sunol" /><tag k="addr:street" v="Calaveras Road" /></node><node id="-307101" lat="37.4971553565" lon="-121.871789097" visible="true"><tag k="addr:housenumber" v="9528" /><tag k="addr:postcode" v="94586" /><tag k="addr:city" v="Sunol" /><tag k="addr:street" v="Weller Road" /></node><node id="-308979" lat="37.5108988281" lon="-121.884744189" visible="true"><tag k="addr:housenumber" v="6901" /><tag k="addr:postcode" v="94586" /><tag k="addr:city" v="Sunol" /><tag k="addr:street" v="Mill Creek Road" /></node><node id="-425125" lat="37.5864931464" lon="-121.881411659" visible="true"><tag k="addr:housenumber" v="8301" /><tag k="addr:postcode" v="94586" /><tag k="addr:city" v="Sunol" /><tag k="addr:street" v="Niles Canyon Road" /></node><node id="-425126" lat="37.5955904011" lon="-121.927554422" visible="true"><tag k="addr:housenumber" v="5005" /><tag k="addr:postcode" v="94586" /><tag k="addr:city" v="Sunol" /><tag k="addr:street" v="Niles Canyon Road" /></node><node id="-425127" lat="37.591028161" lon="-121.913336114" visible="true"><tag k="addr:housenumber" v="7075" /><tag k="addr:postcode" v="94586" /><tag k="addr:city" v="Sunol" /><tag k="addr:street" v="Niles Canyon Road" /></node><node id="-425128" lat="37.6326115339" lon="-121.958669768" visible="true"><tag k="addr:housenumber" v="34161" /><tag k="addr:postcode" v="94552" /><tag k="addr:city" v="Sunol" /><tag k="addr:street" v="Palomares Road" /></node><node id="-425130" lat="37.612700085" lon="-121.896901543" visible="true"><tag k="addr:housenumber" v="1077" /><tag k="addr:postcode" v="94586" /><tag k="addr:city" v="Sunol" /><tag k="addr:street" v="Singalong Way" /></node><node id="-425131" lat="37.6087684781" lon="-121.894162984" visible="true"><tag k="addr:housenumber" v="861" /><tag k="addr:postcode" v="94586" /><tag k="addr:city" v="Sunol" /><tag k="addr:street" v="Singalong Way" /></node><node id="-425132" lat="37.6093474516" lon="-121.894275182" visible="true"><tag k="addr:housenumber" v="865" /><tag k="addr:postcode" v="94586" /><tag k="addr:city" v="Sunol" /><tag k="addr:street" v="Singalong Way" /></node><node id="-425133" lat="37.6356663345" lon="-121.960406061" visible="true"><tag k="addr:housenumber" v="34151" /><tag k="addr:postcode" v="94552" /><tag k="addr:city" v="Sunol" /><tag k="addr:street" v="Palomares Road" /></node><node id="-438171" lat="37.5744929016" lon="-121.866047433" visible="true"><tag k="addr:housenumber" v="5555" /><tag k="addr:postcode" v="94586" /><tag k="addr:city" v="Sunol" /><tag k="addr:street" v="Calaveras Road" /></node><node id="-439121" lat="37.6422726863" lon="-121.969423919" visible="true"><tag k="addr:housenumber" v="33385" /><tag k="addr:postcode" v="94552" /><tag k="addr:city" v="Sunol" /><tag k="addr:street" v="Palomares Road" /></node><node id="-441963" lat="37.6075618431" lon="-121.944826586" visible="true"><tag k="addr:housenumber" v="36844" /><tag k="addr:postcode" v="94587" /><tag k="addr:city" v="Sunol" /><tag k="addr:street" v="Palomares Road" /></node><node id="-441964" lat="37.6280775456" lon="-121.947687384" visible="true"><tag k="addr:housenumber" v="35551" /><tag k="addr:postcode" v="94587" /><tag k="addr:city" v="Sunol" /><tag k="addr:street" v="Palomares Road" /></node><node id="-441967" lat="37.6263985597" lon="-121.946087127" visible="true"><tag k="addr:housenumber" v="35655" /><tag k="addr:postcode" v="94587" /><tag k="addr:city" v="Sunol" /><tag k="addr:street" v="Palomares Road" /></node><node id="-441968" lat="37.625741737" lon="-121.945333153" visible="true"><tag k="addr:housenumber" v="35687" /><tag k="addr:postcode" v="94587" /><tag k="addr:city" v="Sunol" /><tag k="addr:street" v="Palomares Road" /></node><node id="-441969" lat="37.6253743011" lon="-121.94512658" visible="true"><tag k="addr:housenumber" v="35691" /><tag k="addr:postcode" v="94587" /><tag k="addr:city" v="Sunol" /><tag k="addr:street" v="Palomares Road" /></node><node id="-442135" lat="37.6250220265" lon="-121.94511974" visible="true"><tag k="addr:housenumber" v="35693" /><tag k="addr:postcode" v="94587" /><tag k="addr:city" v="Sunol" /><tag k="addr:street" v="Palomares Road" /></node><node id="-442136" lat="37.6247146042" lon="-121.94504729" visible="true"><tag k="addr:housenumber" v="35697" /><tag k="addr:postcode" v="94587" /><tag k="addr:city" v="Sunol" /><tag k="addr:street" v="Palomares Road" /></node><node id="-444366" lat="37.6274565586" lon="-121.877834511" visible="true"><tag k="addr:housenumber" v="7960" /><tag k="addr:postcode" v="94566" /><tag k="addr:city" v="Sunol" /><tag k="addr:street" v="Pleasanton Sunol Road" /></node><node id="-445370" lat="37.6356887224" lon="-121.919330239" visible="true"><tag k="addr:housenumber" v="12061" /><tag k="addr:postcode" v="94586" /><tag k="addr:city" v="Sunol" /><tag k="addr:street" v="Pleasan Way" /></node><node id="-445371" lat="37.6355800469" lon="-121.919546693" visible="true"><tag k="addr:housenumber" v="2959" /><tag k="addr:postcode" v="94586" /><tag k="addr:city" v="Sunol" /><tag k="addr:street" v="Singalong Way" /></node><node id="-445372" lat="37.6355296241" lon="-121.920110666" visible="true"><tag k="addr:housenumber" v="2987" /><tag k="addr:postcode" v="94586" /><tag k="addr:city" v="Sunol" /><tag k="addr:street" v="Kilkare Road" /></node><node id="-445373" lat="37.6354756065" lon="-121.919443951" visible="true"><tag k="addr:housenumber" v="12067" /><tag k="addr:postcode" v="94586" /><tag k="addr:city" v="Sunol" /><tag k="addr:street" v="Pleasan Way" /></node><node id="-445374" lat="37.6353721382" lon="-121.919893784" visible="true"><tag k="addr:housenumber" v="2955" /><tag k="addr:postcode" v="94586" /><tag k="addr:city" v="Sunol" /><tag k="addr:street" v="Kilkare Road" /></node><node id="-445375" lat="37.6352171253" lon="-121.919679741" visible="true"><tag k="addr:housenumber" v="2947" /><tag k="addr:postcode" v="94586" /><tag k="addr:city" v="Sunol" /><tag k="addr:street" v="Kilkare Road" /></node><node id="-445376" lat="37.6350396886" lon="-121.919423742" visible="true"><tag k="addr:housenumber" v="2929" /><tag k="addr:postcode" v="94586" /><tag k="addr:city" v="Sunol" /><tag k="addr:street" v="Kilkare Road" /></node><node id="-445377" lat="37.6348375474" lon="-121.920162173" visible="true"><tag k="addr:housenumber" v="2954" /><tag k="addr:postcode" v="94586" /><tag k="addr:city" v="Sunol" /><tag k="addr:street" v="Kilkare Road" /></node><node id="-445378" lat="37.6346327539" lon="-121.919800373" visible="true"><tag k="addr:housenumber" v="2934" /><tag k="addr:postcode" v="94586" /><tag k="addr:city" v="Sunol" /><tag k="addr:street" v="Kilkare Road" /></node><node id="-445379" lat="37.6346258655" lon="-121.918966938" visible="true"><tag k="addr:housenumber" v="2913" /><tag k="addr:postcode" v="94586" /><tag k="addr:city" v="Sunol" /><tag k="addr:street" v="Kilkare Road" /></node><node id="-445380" lat="37.6345300186" lon="-121.918858543" visible="true"><tag k="addr:housenumber" v="2893" /><tag k="addr:postcode" v="94586" /><tag k="addr:city" v="Sunol" /><tag k="addr:street" v="Kilkare Road" /></node><node id="-445381" lat="37.6343292521" lon="-121.919670688" visible="true"><tag k="addr:housenumber" v="2918" /><tag k="addr:postcode" v="94586" /><tag k="addr:city" v="Sunol" /><tag k="addr:street" v="Kilkare Road" /></node><node id="-445382" lat="37.6343289746" lon="-121.918624213" visible="true"><tag k="addr:housenumber" v="2885" /><tag k="addr:postcode" v="94586" /><tag k="addr:city" v="Sunol" /><tag k="addr:street" v="Kilkare Road" /></node><node id="-445383" lat="37.6343090401" lon="-121.919429254" visible="true"><tag k="addr:housenumber" v="2912" /><tag k="addr:postcode" v="94586" /><tag k="addr:city" v="Sunol" /><tag k="addr:street" v="Kilkare Road" /></node><node id="-445384" lat="37.6342329102" lon="-121.918501254" visible="true"><tag k="addr:housenumber" v="2866" /><tag k="addr:postcode" v="94586" /><tag k="addr:city" v="Sunol" /><tag k="addr:street" v="Kilkare Road" /></node><node id="-445385" lat="37.6339363035" lon="-121.919219466" visible="true"><tag k="addr:housenumber" v="2886" /><tag k="addr:postcode" v="94586" /><tag k="addr:city" v="Sunol" /><tag k="addr:street" v="Kilkare Road" /></node><node id="-445386" lat="37.6341401554" lon="-121.918369409" visible="true"><tag k="addr:housenumber" v="2866" /><tag k="addr:postcode" v="94586" /><tag k="addr:city" v="Sunol" /><tag k="addr:street" v="Kilkare Road" /></node><node id="-445387" lat="37.6340004507" lon="-121.918201113" visible="true"><tag k="addr:housenumber" v="2858" /><tag k="addr:postcode" v="94586" /><tag k="addr:city" v="Sunol" /><tag k="addr:street" v="Kilkare Road" /></node><node id="-445388" lat="37.6337590517" lon="-121.918704094" visible="true"><tag k="addr:housenumber" v="2864" /><tag k="addr:postcode" v="94586" /><tag k="addr:city" v="Sunol" /><tag k="addr:street" v="Kilkare Road" /></node><node id="-445389" lat="37.6332459802" lon="-121.918490997" visible="true"><tag k="addr:housenumber" v="2836" /><tag k="addr:postcode" v="94586" /><tag k="addr:city" v="Sunol" /><tag k="addr:street" v="Kilkare Road" /></node><node id="-445390" lat="37.6320698003" lon="-121.914998765" visible="true"><tag k="addr:housenumber" v="2690" /><tag k="addr:postcode" v="94586" /><tag k="addr:city" v="Sunol" /><tag k="addr:street" v="Singalong Way" /></node><node id="-445391" lat="37.6320949449" lon="-121.914333856" visible="true"><tag k="addr:housenumber" v="2734" /><tag k="addr:postcode" v="94586" /><tag k="addr:city" v="Sunol" /><tag k="addr:street" v="Parkway" /></node><node id="-445392" lat="37.6317428878" lon="-121.914681828" visible="true"><tag k="addr:housenumber" v="2726" /><tag k="addr:postcode" v="94586" /><tag k="addr:city" v="Sunol" /><tag k="addr:street" v="Parkway" /></node><node id="-445393" lat="37.6315554921" lon="-121.915731959" visible="true"><tag k="addr:housenumber" v="12021" /><tag k="addr:postcode" v="94586" /><tag k="addr:city" v="Sunol" /><tag k="addr:street" v="Glenora Way" /></node><node id="-445394" lat="37.6314701193" lon="-121.915972728" visible="true"><tag k="addr:housenumber" v="12033" /><tag k="addr:postcode" v="94586" /><tag k="addr:city" v="Sunol" /><tag k="addr:street" v="Glenora Way" /></node><node id="-445395" lat="37.6313828601" lon="-121.914621014" visible="true"><tag k="addr:housenumber" v="2639" /><tag k="addr:postcode" v="94586" /><tag k="addr:city" v="Sunol" /><tag k="addr:street" v="Parkway" /></node><node id="-445396" lat="37.6314390924" lon="-121.916142079" visible="true"><tag k="addr:housenumber" v="12039" /><tag k="addr:postcode" v="94586" /><tag k="addr:city" v="Sunol" /><tag k="addr:street" v="Glenora Way" /></node><node id="-445397" lat="37.6314130203" lon="-121.916293409" visible="true"><tag k="addr:housenumber" v="12045" /><tag k="addr:postcode" v="94586" /><tag k="addr:city" v="Sunol" /><tag k="addr:street" v="Glenora Way" /></node><node id="-445398" lat="37.6313916962" lon="-121.917270759" visible="true"><tag k="addr:housenumber" v="12051" /><tag k="addr:postcode" v="94586" /><tag k="addr:city" v="Sunol" /><tag k="addr:street" v="Cherokee Way" /></node><node id="-445399" lat="37.631254707" lon="-121.915676318" visible="true"><tag k="addr:housenumber" v="12028" /><tag k="addr:postcode" v="94586" /><tag k="addr:city" v="Sunol" /><tag k="addr:street" v="Glenora Way" /></node><node id="-445400" lat="37.631192614" lon="-121.916260463" visible="true"><tag k="addr:housenumber" v="12046" /><tag k="addr:postcode" v="94586" /><tag k="addr:city" v="Sunol" /><tag k="addr:street" v="Glenora Way" /></node><node id="-445401" lat="37.6312095544" lon="-121.915952477" visible="true"><tag k="addr:housenumber" v="12034" /><tag k="addr:postcode" v="94586" /><tag k="addr:city" v="Sunol" /><tag k="addr:street" v="Glenora Way" /></node><node id="-445899" lat="37.5965988145" lon="-121.881050195" visible="true"><tag k="addr:housenumber" v="11345" /><tag k="addr:postcode" v="94586" /><tag k="addr:city" v="Sunol" /><tag k="addr:street" v="Pleasanton Sunol Road" /></node><node id="-445900" lat="37.5963598465" lon="-121.902628611" visible="true"><tag k="addr:housenumber" v="7010" /><tag k="addr:postcode" v="94586" /><tag k="addr:city" v="Sunol" /><tag k="addr:street" v="Niles Canyon Road" /></node><node id="-445901" lat="37.5963908792" lon="-121.893927552" visible="true"><tag k="addr:housenumber" v="12367" /><tag k="addr:postcode" v="94586" /><tag k="addr:city" v="Sunol" /><tag k="addr:street" v="Foothill Road" /></node><node id="-445902" lat="37.595695502" lon="-121.893403879" visible="true"><tag k="addr:housenumber" v="12291" /><tag k="addr:postcode" v="94586" /><tag k="addr:city" v="Sunol" /><tag k="addr:street" v="Foothill Road" /></node><node id="-445903" lat="37.5966211836" lon="-121.890581958" visible="true"><tag k="addr:housenumber" v="156" /><tag k="addr:postcode" v="94586" /><tag k="addr:city" v="Sunol" /><tag k="addr:street" v="Kilkare Road" /></node><node id="-445904" lat="37.5964997151" lon="-121.890504414" visible="true"><tag k="addr:housenumber" v="148" /><tag k="addr:postcode" v="94586" /><tag k="addr:city" v="Sunol" /><tag k="addr:street" v="Kilkare Road" /></node><node id="-445905" lat="37.5963417382" lon="-121.886361614" visible="true"><tag k="addr:housenumber" v="11739" /><tag k="addr:postcode" v="94586" /><tag k="addr:city" v="Sunol" /><tag k="addr:street" v="Foothill Road" /></node><node id="-445906" lat="37.5963765772" lon="-121.890425189" visible="true"><tag k="addr:housenumber" v="140" /><tag k="addr:postcode" v="94586" /><tag k="addr:city" v="Sunol" /><tag k="addr:street" v="Kilkare Road" /></node><node id="-445907" lat="37.5954873985" lon="-121.901177775" visible="true"><tag k="addr:housenumber" v="7016" /><tag k="addr:postcode" v="94586" /><tag k="addr:city" v="Sunol" /><tag k="addr:street" v="Niles Canyon Road" /></node><node id="-445908" lat="37.5962481036" lon="-121.886481064" visible="true"><tag k="addr:housenumber" v="11743" /><tag k="addr:postcode" v="94586" /><tag k="addr:city" v="Sunol" /><tag k="addr:street" v="Foothill Road" /></node><node id="-445910" lat="37.5962894314" lon="-121.889140354" visible="true"><tag k="addr:housenumber" v="121" /><tag k="addr:postcode" v="94586" /><tag k="addr:city" v="Sunol" /><tag k="addr:street" v="Kilkare Road" /></node><node id="-445911" lat="37.5949042954" lon="-121.907442942" visible="true"><tag k="addr:housenumber" v="7000" /><tag k="addr:postcode" v="94586" /><tag k="addr:city" v="Sunol" /><tag k="addr:street" v="Niles Canyon Road" /></node><node id="-445912" lat="37.5961516765" lon="-121.886601139" visible="true"><tag k="addr:housenumber" v="11773" /><tag k="addr:postcode" v="94586" /><tag k="addr:city" v="Sunol" /><tag k="addr:street" v="Foothill Road" /></node><node id="-445913" lat="37.5962529388" lon="-121.890345776" visible="true"><tag k="addr:housenumber" v="126" /><tag k="addr:postcode" v="94586" /><tag k="addr:city" v="Sunol" /><tag k="addr:street" v="Kilkare Road" /></node><node id="-445914" lat="37.5961346686" lon="-121.886974089" visible="true"><tag k="addr:housenumber" v="11787" /><tag k="addr:postcode" v="94586" /><tag k="addr:city" v="Sunol" /><tag k="addr:street" v="Foothill Road" /></node><node id="-445915" lat="37.6330386442" lon="-121.918393273" visible="true"><tag k="addr:housenumber" v="2828" /><tag k="addr:postcode" v="94586" /><tag k="addr:city" v="Sunol" /><tag k="addr:street" v="Kilkare Road" /></node><node id="-445916" lat="37.6326694565" lon="-121.918317082" visible="true"><tag k="addr:housenumber" v="2814" /><tag k="addr:postcode" v="94586" /><tag k="addr:city" v="Sunol" /><tag k="addr:street" v="Kilkare Road" /></node><node id="-445917" lat="37.6321338723" lon="-121.913548616" visible="true"><tag k="addr:housenumber" v="2740" /><tag k="addr:postcode" v="94586" /><tag k="addr:city" v="Sunol" /><tag k="addr:street" v="Pleasan Way" /></node><node id="-445918" lat="37.6051341461" lon="-121.877338215" visible="true"><tag k="addr:housenumber" v="10228" /><tag k="addr:postcode" v="94586" /><tag k="addr:city" v="Sunol" /><tag k="addr:street" v="Foothill Road" /></node><node id="-445919" lat="37.6024097761" lon="-121.891409474" visible="true"><tag k="addr:housenumber" v="505" /><tag k="addr:postcode" v="94586" /><tag k="addr:city" v="Sunol" /><tag k="addr:street" v="Kilkare Road" /></node><node id="-445920" lat="37.6047789124" lon="-121.894459396" visible="true"><tag k="addr:housenumber" v="680" /><tag k="addr:postcode" v="94586" /><tag k="addr:city" v="Sunol" /><tag k="addr:street" v="Kilkare Road" /></node><node id="-445921" lat="37.6284858024" lon="-121.913924963" visible="true"><tag k="addr:housenumber" v="2496" /><tag k="addr:postcode" v="94586" /><tag k="addr:city" v="Sunol" /><tag k="addr:street" v="Kilkare Road" /></node><node id="-445922" lat="37.628255013" lon="-121.913472515" visible="true"><tag k="addr:housenumber" v="2483" /><tag k="addr:postcode" v="94586" /><tag k="addr:city" v="Sunol" /><tag k="addr:street" v="Kilkare Road" /></node><node id="-445923" lat="37.6282374109" lon="-121.913861472" visible="true"><tag k="addr:housenumber" v="2488" /><tag k="addr:postcode" v="94586" /><tag k="addr:city" v="Sunol" /><tag k="addr:street" v="Fern Terrace" /></node><node id="-445924" lat="37.6280435797" lon="-121.913164462" visible="true"><tag k="addr:housenumber" v="2457" /><tag k="addr:postcode" v="94586" /><tag k="addr:city" v="Sunol" /><tag k="addr:street" v="Fern Terrace" /></node><node id="-445925" lat="37.6280115338" lon="-121.913640511" visible="true"><tag k="addr:housenumber" v="2472" /><tag k="addr:postcode" v="94586" /><tag k="addr:city" v="Sunol" /><tag k="addr:street" v="Fern Terrace" /></node><node id="-445926" lat="37.6279323163" lon="-121.91222284" visible="true"><tag k="addr:housenumber" v="2417" /><tag k="addr:postcode" v="94586" /><tag k="addr:city" v="Sunol" /><tag k="addr:street" v="Kilkare Road" /></node><node id="-445927" lat="37.6279326636" lon="-121.912878205" visible="true"><tag k="addr:housenumber" v="12007" /><tag k="addr:postcode" v="94586" /><tag k="addr:city" v="Sunol" /><tag k="addr:street" v="Kilkare Road" /></node><node id="-445928" lat="37.6278631683" lon="-121.913511485" visible="true"><tag k="addr:housenumber" v="2456" /><tag k="addr:postcode" v="94586" /><tag k="addr:city" v="Sunol" /><tag k="addr:street" v="Fern Terrace" /></node><node id="-445929" lat="37.6277173483" lon="-121.9127394" visible="true"><tag k="addr:housenumber" v="12010" /><tag k="addr:postcode" v="94586" /><tag k="addr:city" v="Sunol" /><tag k="addr:street" v="Ruth Glen" /></node><node id="-445930" lat="37.6277013823" lon="-121.911882854" visible="true"><tag k="addr:housenumber" v="2397" /><tag k="addr:postcode" v="94586" /><tag k="addr:city" v="Sunol" /><tag k="addr:street" v="Kilkare Road" /></node><node id="-445931" lat="37.6276815099" lon="-121.913078085" visible="true"><tag k="addr:housenumber" v="1204" /><tag k="addr:postcode" v="94586" /><tag k="addr:city" v="Sunol" /><tag k="addr:street" v="Ruth Glen" /></node><node id="-445932" lat="37.6275135631" lon="-121.913332516" visible="true"><tag k="addr:housenumber" v="2420" /><tag k="addr:postcode" v="94586" /><tag k="addr:city" v="Sunol" /><tag k="addr:street" v="Fern Terrace" /></node><node id="-445933" lat="37.6274627839" lon="-121.913981584" visible="true"><tag k="addr:housenumber" v="12067" /><tag k="addr:postcode" v="94586" /><tag k="addr:city" v="Sunol" /><tag k="addr:street" v="Ruth Glen" /></node><node id="-445934" lat="37.6274420643" lon="-121.911812419" visible="true"><tag k="addr:housenumber" v="2385" /><tag k="addr:postcode" v="94586" /><tag k="addr:city" v="Sunol" /><tag k="addr:street" v="Kilkare Road" /></node><node id="-445935" lat="37.6274698634" lon="-121.912907556" visible="true"><tag k="addr:housenumber" v="2415" /><tag k="addr:postcode" v="94586" /><tag k="addr:city" v="Sunol" /><tag k="addr:street" v="Fern Terrace" /></node><node id="-445936" lat="37.6261011006" lon="-121.911353074" visible="true"><tag k="addr:housenumber" v="2315" /><tag k="addr:postcode" v="94586" /><tag k="addr:city" v="Sunol" /><tag k="addr:street" v="Kilkare Road" /></node><node id="-445937" lat="37.6036493987" lon="-121.891557999" visible="true"><tag k="addr:housenumber" v="587" /><tag k="addr:postcode" v="94586" /><tag k="addr:city" v="Sunol" /><tag k="addr:street" v="Kilkare Road" /></node><node id="-445940" lat="37.6042951003" lon="-121.876657223" visible="true"><tag k="addr:housenumber" v="10316" /><tag k="addr:postcode" v="94586" /><tag k="addr:city" v="Sunol" /><tag k="addr:street" v="Foothill Road" /></node><node id="-445941" lat="37.6042038374" lon="-121.877575508" visible="true"><tag k="addr:housenumber" v="10420" /><tag k="addr:postcode" v="94586" /><tag k="addr:city" v="Sunol" /><tag k="addr:street" v="Foothill Road" /></node><node id="-445942" lat="37.603404623" lon="-121.879707233" visible="true"><tag k="addr:housenumber" v="10563" /><tag k="addr:postcode" v="94586" /><tag k="addr:city" v="Sunol" /><tag k="addr:street" v="Foothill Road" /></node><node id="-445943" lat="37.6337220224" lon="-121.91800079" visible="true"><tag k="addr:housenumber" v="2824" /><tag k="addr:postcode" v="94586" /><tag k="addr:city" v="Sunol" /><tag k="addr:street" v="Kilkare Road" /></node><node id="-445944" lat="37.633432291" lon="-121.918042706" visible="true"><tag k="addr:housenumber" v="2841" /><tag k="addr:postcode" v="94586" /><tag k="addr:city" v="Sunol" /><tag k="addr:street" v="Kilkare Road" /></node><node id="-445945" lat="37.6032520047" lon="-121.879770939" visible="true"><tag k="addr:housenumber" v="10579" /><tag k="addr:postcode" v="94586" /><tag k="addr:city" v="Sunol" /><tag k="addr:street" v="Foothill Road" /></node><node id="-445946" lat="37.602842642" lon="-121.88059711" visible="true"><tag k="addr:housenumber" v="10727" /><tag k="addr:postcode" v="94586" /><tag k="addr:city" v="Sunol" /><tag k="addr:street" v="Foothill Road" /></node><node id="-445950" lat="37.6359297781" lon="-121.919897029" visible="true"><tag k="addr:housenumber" v="2989" /><tag k="addr:postcode" v="94586" /><tag k="addr:city" v="Sunol" /><tag k="addr:street" v="Singalong Way" /></node><node id="-445951" lat="37.6359288022" lon="-121.919565406" visible="true"><tag k="addr:housenumber" v="2992" /><tag k="addr:postcode" v="94586" /><tag k="addr:city" v="Sunol" /><tag k="addr:street" v="Pleasant Way" /></node><node id="-445953" lat="37.6101416495" lon="-121.898621226" visible="true"><tag k="addr:housenumber" v="1014" /><tag k="addr:postcode" v="94586" /><tag k="addr:city" v="Sunol" /><tag k="addr:street" v="Kilkare Road" /></node><node id="-445954" lat="37.610394624" lon="-121.885036822" visible="true"><tag k="addr:housenumber" v="9895" /><tag k="addr:postcode" v="94586" /><tag k="addr:city" v="Sunol" /><tag k="addr:street" v="Foothill Road" /></node><node id="-445955" lat="37.6105625532" lon="-121.883578921" visible="true"><tag k="addr:housenumber" v="9877" /><tag k="addr:postcode" v="94586" /><tag k="addr:city" v="Sunol" /><tag k="addr:street" v="Foothill Road" /></node><node id="-445956" lat="37.6102042539" lon="-121.881654505" visible="true"><tag k="addr:housenumber" v="9911" /><tag k="addr:postcode" v="94586" /><tag k="addr:city" v="Sunol" /><tag k="addr:street" v="Foothill Road" /></node><node id="-445957" lat="37.6104177307" lon="-121.896191598" visible="true"><tag k="addr:housenumber" v="987" /><tag k="addr:postcode" v="94586" /><tag k="addr:city" v="Sunol" /><tag k="addr:street" v="Kilkare Road" /></node><node id="-445958" lat="37.6103559759" lon="-121.896873436" visible="true"><tag k="addr:housenumber" v="1000" /><tag k="addr:postcode" v="94586" /><tag k="addr:city" v="Sunol" /><tag k="addr:street" v="Kilkare Road" /></node><node id="-445959" lat="37.6099659791" lon="-121.896952249" visible="true"><tag k="addr:housenumber" v="980" /><tag k="addr:postcode" v="94586" /><tag k="addr:city" v="Sunol" /><tag k="addr:street" v="Kilkare Road" /></node><node id="-445960" lat="37.6100686687" lon="-121.882784883" visible="true"><tag k="addr:housenumber" v="9911" /><tag k="addr:postcode" v="94586" /><tag k="addr:city" v="Sunol" /><tag k="addr:street" v="Foothill Road" /></node><node id="-445961" lat="37.6027474267" lon="-121.891473786" visible="true"><tag k="addr:housenumber" v="549" /><tag k="addr:postcode" v="94586" /><tag k="addr:city" v="Sunol" /><tag k="addr:street" v="Kilkare Road" /></node><node id="-445962" lat="37.6099665735" lon="-121.895833675" visible="true"><tag k="addr:housenumber" v="975" /><tag k="addr:postcode" v="94586" /><tag k="addr:city" v="Sunol" /><tag k="addr:street" v="Kilkare Road" /></node><node id="-445964" lat="37.6087696488" lon="-121.896994522" visible="true"><tag k="addr:housenumber" v="944" /><tag k="addr:postcode" v="94586" /><tag k="addr:city" v="Sunol" /><tag k="addr:street" v="Kilkare Road" /></node><node id="-445965" lat="37.6093739418" lon="-121.895010182" visible="true"><tag k="addr:housenumber" v="905" /><tag k="addr:postcode" v="94586" /><tag k="addr:city" v="Sunol" /><tag k="addr:street" v="Kilkare Road" /></node><node id="-445966" lat="37.609510289" lon="-121.895825393" visible="true"><tag k="addr:housenumber" v="936" /><tag k="addr:postcode" v="94586" /><tag k="addr:city" v="Sunol" /><tag k="addr:street" v="Kilkare Road" /></node><node id="-445967" lat="37.6078189245" lon="-121.879344004" visible="true"><tag k="addr:housenumber" v="9957" /><tag k="addr:postcode" v="94586" /><tag k="addr:city" v="Sunol" /><tag k="addr:street" v="Foothill Road" /></node><node id="-445968" lat="37.6077221807" lon="-121.895050071" visible="true"><tag k="addr:housenumber" v="822" /><tag k="addr:postcode" v="94586" /><tag k="addr:city" v="Sunol" /><tag k="addr:street" v="Kilkare Road" /></node><node id="-445971" lat="37.6177914677" lon="-121.903096903" visible="true"><tag k="addr:housenumber" v="1755" /><tag k="addr:postcode" v="94586" /><tag k="addr:city" v="Sunol" /><tag k="addr:street" v="Kilkare Road" /></node><node id="-445972" lat="37.6181660584" lon="-121.880455907" visible="true"><tag k="addr:housenumber" v="8855" /><tag k="addr:postcode" v="94586" /><tag k="addr:city" v="Sunol" /><tag k="addr:street" v="Pleasanton Sunol Road" /></node><node id="-445974" lat="37.597020985" lon="-121.902935102" visible="true"><tag k="addr:housenumber" v="12599" /><tag k="addr:postcode" v="94586" /><tag k="addr:city" v="Sunol" /><tag k="addr:street" v="Foothill Road" /></node><node id="-445975" lat="37.5964270447" lon="-121.893159616" visible="true"><tag k="addr:housenumber" v="12265" /><tag k="addr:postcode" v="94586" /><tag k="addr:city" v="Sunol" /><tag k="addr:street" v="Foothill Road" /></node><node id="-445976" lat="37.5967939132" lon="-121.892036137" visible="true"><tag k="addr:housenumber" v="12259" /><tag k="addr:postcode" v="94586" /><tag k="addr:city" v="Sunol" /><tag k="addr:street" v="Foothill Road" /></node><node id="-445977" lat="37.5975446173" lon="-121.891263451" visible="true"><tag k="addr:housenumber" v="220" /><tag k="addr:postcode" v="94586" /><tag k="addr:city" v="Sunol" /><tag k="addr:street" v="Kilkare Road" /></node><node id="-445978" lat="37.5972616111" lon="-121.890269413" visible="true"><tag k="addr:housenumber" v="187" /><tag k="addr:postcode" v="94586" /><tag k="addr:city" v="Sunol" /><tag k="addr:street" v="Kilkare Road" /></node><node id="-445979" lat="37.5972319126" lon="-121.891130579" visible="true"><tag k="addr:housenumber" v="190" /><tag k="addr:postcode" v="94586" /><tag k="addr:city" v="Sunol" /><tag k="addr:street" v="Kilkare Road" /></node><node id="-445980" lat="37.5968568022" lon="-121.890933866" visible="true"><tag k="addr:housenumber" v="162" /><tag k="addr:postcode" v="94586" /><tag k="addr:city" v="Sunol" /><tag k="addr:street" v="Kilkare Road" /></node><node id="-445982" lat="37.5965955388" lon="-121.889665341" visible="true"><tag k="addr:housenumber" v="121" /><tag k="addr:postcode" v="94586" /><tag k="addr:city" v="Sunol" /><tag k="addr:street" v="Kilkare Road" /></node><node id="-445983" lat="37.596664553" lon="-121.884761851" visible="true"><tag k="addr:housenumber" v="30" /><tag k="addr:postcode" v="94586" /><tag k="addr:city" v="Sunol" /><tag k="addr:street" v="Railroad Avenue" /></node><node id="-445984" lat="37.5965980915" lon="-121.88999926" visible="true"><tag k="addr:housenumber" v="141" /><tag k="addr:postcode" v="94586" /><tag k="addr:city" v="Sunol" /><tag k="addr:street" v="Kilkare Road" /></node><node id="-445985" lat="37.5966394334" lon="-121.88710277" visible="true"><tag k="addr:housenumber" v="11663" /><tag k="addr:postcode" v="94586" /><tag k="addr:city" v="Sunol" /><tag k="addr:street" v="Foothill Road" /></node><node id="-445986" lat="37.5963915706" lon="-121.887928507" visible="true"><tag k="addr:housenumber" v="11911" /><tag k="addr:postcode" v="94586" /><tag k="addr:city" v="Sunol" /><tag k="addr:street" v="Foothill Road" /></node><node id="-445987" lat="37.6357441798" lon="-121.919838529" visible="true"><tag k="addr:housenumber" v="2983" /><tag k="addr:postcode" v="94586" /><tag k="addr:city" v="Sunol" /><tag k="addr:street" v="Singalong Way" /></node><node id="-445988" lat="37.6358033185" lon="-121.919496646" visible="true"><tag k="addr:housenumber" v="12058" /><tag k="addr:postcode" v="94586" /><tag k="addr:city" v="Sunol" /><tag k="addr:street" v="Pleasant Way" /></node><node id="-445989" lat="37.6014455723" lon="-121.892785401" visible="true"><tag k="addr:housenumber" v="488" /><tag k="addr:postcode" v="94586" /><tag k="addr:city" v="Sunol" /><tag k="addr:street" v="Kilkare Road" /></node><node id="-445990" lat="37.6006435403" lon="-121.879524186" visible="true"><tag k="addr:housenumber" v="10730" /><tag k="addr:postcode" v="94586" /><tag k="addr:city" v="Sunol" /><tag k="addr:street" v="Foothill Road" /></node><node id="-445992" lat="37.6007568349" lon="-121.892724065" visible="true"><tag k="addr:housenumber" v="442" /><tag k="addr:postcode" v="94586" /><tag k="addr:city" v="Sunol" /><tag k="addr:street" v="Kilkare Road" /></node><node id="-445993" lat="37.6003021026" lon="-121.880516722" visible="true"><tag k="addr:housenumber" v="10820" /><tag k="addr:postcode" v="94586" /><tag k="addr:city" v="Sunol" /><tag k="addr:street" v="Foothill Road" /></node><node id="-445994" lat="37.6000946545" lon="-121.881381583" visible="true"><tag k="addr:housenumber" v="10832" /><tag k="addr:postcode" v="94586" /><tag k="addr:city" v="Sunol" /><tag k="addr:street" v="Foothill Road" /></node><node id="-445995" lat="37.6002078055" lon="-121.892640294" visible="true"><tag k="addr:housenumber" v="330" /><tag k="addr:postcode" v="94586" /><tag k="addr:city" v="Sunol" /><tag k="addr:street" v="Kilkare Road" /></node><node id="-445996" lat="37.6003646427" lon="-121.890510116" visible="true"><tag k="addr:housenumber" v="367" /><tag k="addr:postcode" v="94586" /><tag k="addr:city" v="Sunol" /><tag k="addr:street" v="Kilkare Road" /></node><node id="-445997" lat="37.5994876201" lon="-121.882674727" visible="true"><tag k="addr:housenumber" v="10848" /><tag k="addr:postcode" v="94586" /><tag k="addr:city" v="Sunol" /><tag k="addr:street" v="Foothill Road" /></node><node id="-445998" lat="37.6000571178" lon="-121.890413013" visible="true"><tag k="addr:housenumber" v="341" /><tag k="addr:postcode" v="94586" /><tag k="addr:city" v="Sunol" /><tag k="addr:street" v="Kilkare Road" /></node><node id="-445999" lat="37.5992907891" lon="-121.895393898" visible="true"><tag k="addr:housenumber" v="12563" /><tag k="addr:postcode" v="94586" /><tag k="addr:city" v="Sunol" /><tag k="addr:street" v="Foothill Road" /></node><node id="-446000" lat="37.5997337868" lon="-121.890070625" visible="true"><tag k="addr:housenumber" v="333" /><tag k="addr:postcode" v="94586" /><tag k="addr:city" v="Sunol" /><tag k="addr:street" v="Kilkare Road" /></node><node id="-446001" lat="37.5995039357" lon="-121.892705196" visible="true"><tag k="addr:housenumber" v="270" /><tag k="addr:postcode" v="94586" /><tag k="addr:city" v="Sunol" /><tag k="addr:street" v="Kilkare Road" /></node><node id="-446002" lat="37.6310090644" lon="-121.916486621" visible="true"><tag k="addr:housenumber" v="12058" /><tag k="addr:postcode" v="94586" /><tag k="addr:city" v="Sunol" /><tag k="addr:street" v="Glenora Way" /></node><node id="-446003" lat="37.6310207838" lon="-121.916134136" visible="true"><tag k="addr:housenumber" v="12057" /><tag k="addr:postcode" v="94586" /><tag k="addr:city" v="Sunol" /><tag k="addr:street" v="Knobhill Terrace" /></node><node id="-446004" lat="37.630717563" lon="-121.915485631" visible="true"><tag k="addr:housenumber" v="12000" /><tag k="addr:postcode" v="94586" /><tag k="addr:city" v="Sunol" /><tag k="addr:street" v="Glenora Way" /></node><node id="-446005" lat="37.630813632" lon="-121.916033738" visible="true"><tag k="addr:housenumber" v="12062" /><tag k="addr:postcode" v="94586" /><tag k="addr:city" v="Sunol" /><tag k="addr:street" v="Knobhill Terrace" /></node><node id="-446006" lat="37.6309288614" lon="-121.916947117" visible="true"><tag k="addr:housenumber" v="12063" /><tag k="addr:postcode" v="94586" /><tag k="addr:city" v="Sunol" /><tag k="addr:street" v="Glenora Way" /></node><node id="-446007" lat="37.6306776893" lon="-121.917140643" visible="true"><tag k="addr:housenumber" v="12070" /><tag k="addr:postcode" v="94586" /><tag k="addr:city" v="Sunol" /><tag k="addr:street" v="Zorro Terrace" /></node><node id="-446008" lat="37.6302844882" lon="-121.917275472" visible="true"><tag k="addr:housenumber" v="12091" /><tag k="addr:postcode" v="94586" /><tag k="addr:city" v="Sunol" /><tag k="addr:street" v="Glenora Way" /></node><node id="-446009" lat="37.6305606798" lon="-121.914308543" visible="true"><tag k="addr:housenumber" v="2630" /><tag k="addr:postcode" v="94586" /><tag k="addr:city" v="Sunol" /><tag k="addr:street" v="Parkway" /></node><node id="-446010" lat="37.6306227307" lon="-121.914811864" visible="true"><tag k="addr:housenumber" v="2635" /><tag k="addr:postcode" v="94586" /><tag k="addr:city" v="Sunol" /><tag k="addr:street" v="Kilkare Road" /></node><node id="-446011" lat="37.6305257567" lon="-121.917840667" visible="true"><tag k="addr:housenumber" v="12088" /><tag k="addr:postcode" v="94586" /><tag k="addr:city" v="Sunol" /><tag k="addr:street" v="Cherokee Way" /></node><node id="-446012" lat="37.6032773668" lon="-121.8930999" visible="true"><tag k="addr:housenumber" v="586" /><tag k="addr:postcode" v="94586" /><tag k="addr:city" v="Sunol" /><tag k="addr:street" v="Kilkare Road" /></node><node id="-446013" lat="37.6025998195" lon="-121.877522394" visible="true"><tag k="addr:housenumber" v="10536" /><tag k="addr:postcode" v="94586" /><tag k="addr:city" v="Sunol" /><tag k="addr:street" v="Foothill Road" /></node><node id="-446014" lat="37.6031098403" lon="-121.924355741" visible="true"><tag k="addr:housenumber" v="5550" /><tag k="addr:postcode" v="94586" /><tag k="addr:city" v="Sunol" /><tag k="addr:street" v="Niles Canyon Road" /></node><node id="-446015" lat="37.6072395877" lon="-121.894503036" visible="true"><tag k="addr:housenumber" v="790" /><tag k="addr:postcode" v="94586" /><tag k="addr:city" v="Sunol" /><tag k="addr:street" v="Kilkare Road" /></node><node id="-446016" lat="37.6071733623" lon="-121.896241369" visible="true"><tag k="addr:housenumber" v="822" /><tag k="addr:postcode" v="94586" /><tag k="addr:city" v="Sunol" /><tag k="addr:street" v="Kilkare Road" /></node><node id="-446017" lat="37.6018930807" lon="-121.903126615" visible="true"><tag k="addr:housenumber" v="12565" /><tag k="addr:postcode" v="94586" /><tag k="addr:city" v="Sunol" /><tag k="addr:street" v="Foothill Road" /></node><node id="-446018" lat="37.6063347001" lon="-121.892593794" visible="true"><tag k="addr:housenumber" v="753" /><tag k="addr:postcode" v="94586" /><tag k="addr:city" v="Sunol" /><tag k="addr:street" v="Kilkare Road" /></node><node id="-446019" lat="37.6069889627" lon="-121.87932648" visible="true"><tag k="addr:housenumber" v="10025" /><tag k="addr:postcode" v="94586" /><tag k="addr:city" v="Sunol" /><tag k="addr:street" v="Foothill Road" /></node><node id="-446020" lat="37.6059367773" lon="-121.881442887" visible="true"><tag k="addr:housenumber" v="24" /><tag k="addr:postcode" v="94586" /><tag k="addr:city" v="Sunol" /><tag k="addr:street" v="Carver Lane" /></node><node id="-446021" lat="37.6064043206" lon="-121.891044148" visible="true"><tag k="addr:housenumber" v="615" /><tag k="addr:postcode" v="94586" /><tag k="addr:city" v="Sunol" /><tag k="addr:street" v="Kilkare Road" /></node><node id="-446022" lat="37.6062163543" lon="-121.894914688" visible="true"><tag k="addr:housenumber" v="770" /><tag k="addr:postcode" v="94586" /><tag k="addr:city" v="Sunol" /><tag k="addr:street" v="Kilkare Road" /></node><node id="-446023" lat="37.6067817247" lon="-121.896980483" visible="true"><tag k="addr:housenumber" v="822" /><tag k="addr:postcode" v="94586" /><tag k="addr:city" v="Sunol" /><tag k="addr:street" v="Kilkare Road" /></node><node id="-446024" lat="37.605587669" lon="-121.892966741" visible="true"><tag k="addr:housenumber" v="753" /><tag k="addr:postcode" v="94586" /><tag k="addr:city" v="Sunol" /><tag k="addr:street" v="Kilkare Road" /></node><node id="-446025" lat="37.6050126148" lon="-121.88208537" visible="true"><tag k="addr:housenumber" v="10579" /><tag k="addr:postcode" v="94586" /><tag k="addr:city" v="Sunol" /><tag k="addr:street" v="Foothill Road" /></node><node id="-446026" lat="37.6063390877" lon="-121.879585166" visible="true"><tag k="addr:housenumber" v="10033" /><tag k="addr:postcode" v="94586" /><tag k="addr:city" v="Sunol" /><tag k="addr:street" v="Foothill Road" /></node><node id="-446027" lat="37.6055845649" lon="-121.893984351" visible="true"><tag k="addr:housenumber" v="728" /><tag k="addr:postcode" v="94586" /><tag k="addr:city" v="Sunol" /><tag k="addr:street" v="Kilkare Road" /></node><node id="-446028" lat="37.6050648013" lon="-121.890984927" visible="true"><tag k="addr:housenumber" v="607" /><tag k="addr:postcode" v="94586" /><tag k="addr:city" v="Sunol" /><tag k="addr:street" v="Kilkare Road" /></node><node id="-446029" lat="37.6046671929" lon="-121.87929115" visible="true"><tag k="addr:housenumber" v="10" /><tag k="addr:postcode" v="94586" /><tag k="addr:city" v="Sunol" /><tag k="addr:street" v="Carver Lane" /></node><node id="-446034" lat="37.6052194873" lon="-121.892319611" visible="true"><tag k="addr:housenumber" v="621" /><tag k="addr:postcode" v="94586" /><tag k="addr:city" v="Sunol" /><tag k="addr:street" v="Kilkare Road" /></node><node id="-446035" lat="37.6014941436" lon="-121.882964469" visible="true"><tag k="addr:housenumber" v="10843" /><tag k="addr:postcode" v="94586" /><tag k="addr:city" v="Sunol" /><tag k="addr:street" v="Foothill Road" /></node><node id="-446036" lat="37.6026891704" lon="-121.893078917" visible="true"><tag k="addr:housenumber" v="528" /><tag k="addr:postcode" v="94586" /><tag k="addr:city" v="Sunol" /><tag k="addr:street" v="Kilkare Road" /></node><node id="-446037" lat="37.6022368096" lon="-121.893113841" visible="true"><tag k="addr:housenumber" v="508" /><tag k="addr:postcode" v="94586" /><tag k="addr:city" v="Sunol" /><tag k="addr:street" v="Kilkare Road" /></node><node id="-446038" lat="37.6016740686" lon="-121.881422173" visible="true"><tag k="addr:housenumber" v="10833" /><tag k="addr:postcode" v="94586" /><tag k="addr:city" v="Sunol" /><tag k="addr:street" v="Foothill Road" /></node><node id="-446039" lat="37.600335416" lon="-121.885122631" visible="true"><tag k="addr:housenumber" v="11011" /><tag k="addr:postcode" v="94586" /><tag k="addr:city" v="Sunol" /><tag k="addr:street" v="Foothill Road" /></node><node id="-446040" lat="37.6011188367" lon="-121.87835674" visible="true"><tag k="addr:housenumber" v="10700" /><tag k="addr:postcode" v="94586" /><tag k="addr:city" v="Sunol" /><tag k="addr:street" v="Foothill Road" /></node><node id="-446041" lat="37.6010087714" lon="-121.889952211" visible="true"><tag k="addr:housenumber" v="463" /><tag k="addr:postcode" v="94586" /><tag k="addr:city" v="Sunol" /><tag k="addr:street" v="Kilkare Road" /></node><node id="-446042" lat="37.5981166041" lon="-121.884809294" visible="true"><tag k="addr:housenumber" v="11736" /><tag k="addr:postcode" v="94586" /><tag k="addr:city" v="Sunol" /><tag k="addr:street" v="Foothill Road" /></node><node id="-446043" lat="37.599517217" lon="-121.890583408" visible="true"><tag k="addr:housenumber" v="315" /><tag k="addr:postcode" v="94586" /><tag k="addr:city" v="Sunol" /><tag k="addr:street" v="Kilkare Road" /></node><node id="-446044" lat="37.5993120739" lon="-121.889972005" visible="true"><tag k="addr:housenumber" v="301" /><tag k="addr:postcode" v="94586" /><tag k="addr:city" v="Sunol" /><tag k="addr:street" v="Kilkare Road" /></node><node id="-446045" lat="37.5993788307" lon="-121.890733823" visible="true"><tag k="addr:housenumber" v="309" /><tag k="addr:postcode" v="94586" /><tag k="addr:city" v="Sunol" /><tag k="addr:street" v="Kilkare Road" /></node><node id="-446046" lat="37.5987724878" lon="-121.892722166" visible="true"><tag k="addr:housenumber" v="244" /><tag k="addr:postcode" v="94586" /><tag k="addr:city" v="Sunol" /><tag k="addr:street" v="Kilkare Road" /></node><node id="-446047" lat="37.5989486301" lon="-121.890773935" visible="true"><tag k="addr:housenumber" v="287" /><tag k="addr:postcode" v="94586" /><tag k="addr:city" v="Sunol" /><tag k="addr:street" v="Kilkare Road" /></node><node id="-446048" lat="37.5940123472" lon="-121.876254851" visible="true"><tag k="addr:housenumber" v="11600" /><tag k="addr:postcode" v="94586" /><tag k="addr:city" v="Sunol" /><tag k="addr:street" v="Pleasanton Sunol Road" /></node><node id="-446049" lat="37.5985906985" lon="-121.890200712" visible="true"><tag k="addr:housenumber" v="249" /><tag k="addr:postcode" v="94586" /><tag k="addr:city" v="Sunol" /><tag k="addr:street" v="Kilkare Road" /></node><node id="-446050" lat="37.5982365467" lon="-121.882867145" visible="true"><tag k="addr:housenumber" v="14" /><tag k="addr:postcode" v="94586" /><tag k="addr:city" v="Sunol" /><tag k="addr:street" v="Bond Street" /></node><node id="-446051" lat="37.5983787384" lon="-121.890464798" visible="true"><tag k="addr:housenumber" v="241" /><tag k="addr:postcode" v="94586" /><tag k="addr:city" v="Sunol" /><tag k="addr:street" v="Kilkare Road" /></node><node id="-446052" lat="37.5980348872" lon="-121.890232775" visible="true"><tag k="addr:housenumber" v="227" /><tag k="addr:postcode" v="94586" /><tag k="addr:city" v="Sunol" /><tag k="addr:street" v="Kilkare Road" /></node><node id="-446053" lat="37.5974674972" lon="-121.88392827" visible="true"><tag k="addr:housenumber" v="20" /><tag k="addr:postcode" v="94586" /><tag k="addr:city" v="Sunol" /><tag k="addr:street" v="Railroad Avenue" /></node><node id="-446054" lat="37.5975501293" lon="-121.890142486" visible="true"><tag k="addr:housenumber" v="211" /><tag k="addr:postcode" v="94586" /><tag k="addr:city" v="Sunol" /><tag k="addr:street" v="Kilkare Road" /></node><node id="-446055" lat="37.6304844815" lon="-121.916518022" visible="true"><tag k="addr:housenumber" v="12078" /><tag k="addr:postcode" v="94586" /><tag k="addr:city" v="Sunol" /><tag k="addr:street" v="Glenora Way" /></node><node id="-446056" lat="37.6304591898" lon="-121.914772253" visible="true"><tag k="addr:housenumber" v="2635" /><tag k="addr:postcode" v="94586" /><tag k="addr:city" v="Sunol" /><tag k="addr:street" v="Kilkare Road" /></node><node id="-446057" lat="37.608680302" lon="-121.878419919" visible="true"><tag k="addr:housenumber" v="9945" /><tag k="addr:postcode" v="94586" /><tag k="addr:city" v="Sunol" /><tag k="addr:street" v="Foothill Road" /></node><node id="-446058" lat="37.6089594531" lon="-121.897663818" visible="true"><tag k="addr:housenumber" v="994" /><tag k="addr:postcode" v="94586" /><tag k="addr:city" v="Sunol" /><tag k="addr:street" v="Kilkare Road" /></node><node id="-446059" lat="37.6089092481" lon="-121.894684921" visible="true"><tag k="addr:housenumber" v="867" /><tag k="addr:postcode" v="94586" /><tag k="addr:city" v="Sunol" /><tag k="addr:street" v="Kilkare Road" /></node><node id="-446060" lat="37.608131083" lon="-121.893540497" visible="true"><tag k="addr:housenumber" v="861" /><tag k="addr:postcode" v="94586" /><tag k="addr:city" v="Sunol" /><tag k="addr:street" v="Kilkare Road" /></node><node id="-446061" lat="37.6085669443" lon="-121.894530181" visible="true"><tag k="addr:housenumber" v="865" /><tag k="addr:postcode" v="94586" /><tag k="addr:city" v="Sunol" /><tag k="addr:street" v="Kilkare Road" /></node><node id="-446062" lat="37.6078118602" lon="-121.896254825" visible="true"><tag k="addr:housenumber" v="866" /><tag k="addr:postcode" v="94586" /><tag k="addr:city" v="Sunol" /><tag k="addr:street" v="Kilkare Road" /></node><node id="-446063" lat="37.6079400428" lon="-121.883632699" visible="true"><tag k="addr:housenumber" v="31" /><tag k="addr:postcode" v="94586" /><tag k="addr:city" v="Sunol" /><tag k="addr:street" v="Carver Lane" /></node><node id="-446064" lat="37.608344091" lon="-121.898155588" visible="true"><tag k="addr:housenumber" v="994" /><tag k="addr:postcode" v="94586" /><tag k="addr:city" v="Sunol" /><tag k="addr:street" v="Kilkare Road" /></node><node id="-446065" lat="37.6073520591" lon="-121.884416463" visible="true"><tag k="addr:housenumber" v="10559" /><tag k="addr:postcode" v="94586" /><tag k="addr:city" v="Sunol" /><tag k="addr:street" v="Foothill Road" /></node><node id="-446066" lat="37.6297690876" lon="-121.915045541" visible="true"><tag k="addr:housenumber" v="2586" /><tag k="addr:postcode" v="94586" /><tag k="addr:city" v="Sunol" /><tag k="addr:street" v="Kilkare Road" /></node><node id="-446067" lat="37.629652127" lon="-121.914212367" visible="true"><tag k="addr:housenumber" v="2559" /><tag k="addr:postcode" v="94586" /><tag k="addr:city" v="Sunol" /><tag k="addr:street" v="Kilkare Road" /></node><node id="-446068" lat="37.6294849765" lon="-121.914823472" visible="true"><tag k="addr:housenumber" v="2562" /><tag k="addr:postcode" v="94586" /><tag k="addr:city" v="Sunol" /><tag k="addr:street" v="Kilkare Road" /></node><node id="-446069" lat="37.6295204845" lon="-121.914145933" visible="true"><tag k="addr:housenumber" v="2547" /><tag k="addr:postcode" v="94586" /><tag k="addr:city" v="Sunol" /><tag k="addr:street" v="Kilkare Road" /></node><node id="-446070" lat="37.6293936583" lon="-121.91408189" visible="true"><tag k="addr:housenumber" v="2539" /><tag k="addr:postcode" v="94586" /><tag k="addr:city" v="Sunol" /><tag k="addr:street" v="Kilkare Road" /></node><node id="-446071" lat="37.6290800855" lon="-121.913617396" visible="true"><tag k="addr:housenumber" v="2489" /><tag k="addr:postcode" v="94586" /><tag k="addr:city" v="Sunol" /><tag k="addr:street" v="Kilkare Road" /></node><node id="-446072" lat="37.6292883304" lon="-121.914555325" visible="true"><tag k="addr:housenumber" v="2549" /><tag k="addr:postcode" v="94586" /><tag k="addr:city" v="Sunol" /><tag k="addr:street" v="Kilkare Road" /></node><node id="-446073" lat="37.6291091437" lon="-121.914422065" visible="true"><tag k="addr:housenumber" v="53" /><tag k="addr:postcode" v="94586" /><tag k="addr:city" v="Sunol" /><tag k="addr:street" v="Kilkare Road" /></node><node id="-446074" lat="37.6289763439" lon="-121.914288072" visible="true"><tag k="addr:housenumber" v="2527" /><tag k="addr:postcode" v="94586" /><tag k="addr:city" v="Sunol" /><tag k="addr:street" v="Kilkare Road" /></node><node id="-446075" lat="37.6288213149" lon="-121.914546867" visible="true"><tag k="addr:housenumber" v="2540" /><tag k="addr:postcode" v="94586" /><tag k="addr:city" v="Sunol" /><tag k="addr:street" v="Kilkare Road" /></node><node id="-446076" lat="37.6287131111" lon="-121.913282868" visible="true"><tag k="addr:housenumber" v="2481" /><tag k="addr:postcode" v="94586" /><tag k="addr:city" v="Sunol" /><tag k="addr:street" v="Kilkare Road" /></node><node id="-446077" lat="37.6287420123" lon="-121.914092789" visible="true"><tag k="addr:housenumber" v="2511" /><tag k="addr:postcode" v="94586" /><tag k="addr:city" v="Sunol" /><tag k="addr:street" v="Kilkare Road" /></node><node id="-446078" lat="37.6286254628" lon="-121.912838314" visible="true"><tag k="addr:housenumber" v="2465" /><tag k="addr:postcode" v="94586" /><tag k="addr:city" v="Sunol" /><tag k="addr:street" v="Kilkare Road" /></node><node id="-446079" lat="37.6285856866" lon="-121.914358259" visible="true"><tag k="addr:housenumber" v="2508" /><tag k="addr:postcode" v="94586" /><tag k="addr:city" v="Sunol" /><tag k="addr:street" v="Kilkare Road" /></node><node id="-446080" lat="37.6284094492" lon="-121.912354076" visible="true"><tag k="addr:housenumber" v="2441" /><tag k="addr:postcode" v="94586" /><tag k="addr:city" v="Sunol" /><tag k="addr:street" v="Kilkare Road" /></node><node id="-446081" lat="37.6285403375" lon="-121.913161648" visible="true"><tag k="addr:housenumber" v="2473" /><tag k="addr:postcode" v="94586" /><tag k="addr:city" v="Sunol" /><tag k="addr:street" v="Kilkare Road" /></node><node id="-446082" lat="37.6273954341" lon="-121.912327298" visible="true"><tag k="addr:housenumber" v="2397" /><tag k="addr:postcode" v="94586" /><tag k="addr:city" v="Sunol" /><tag k="addr:street" v="Kilkare Road" /></node><node id="-446083" lat="37.6273996816" lon="-121.912752983" visible="true"><tag k="addr:housenumber" v="2415" /><tag k="addr:postcode" v="94586" /><tag k="addr:city" v="Sunol" /><tag k="addr:street" v="Fern Terrace" /></node><node id="-446084" lat="37.6272009652" lon="-121.911507324" visible="true"><tag k="addr:housenumber" v="2373" /><tag k="addr:postcode" v="94586" /><tag k="addr:city" v="Sunol" /><tag k="addr:street" v="Kilkare Road" /></node><node id="-446085" lat="37.6272800037" lon="-121.914262917" visible="true"><tag k="addr:housenumber" v="12075" /><tag k="addr:postcode" v="94586" /><tag k="addr:city" v="Sunol" /><tag k="addr:street" v="Ruth Glen" /></node><node id="-446086" lat="37.6272497392" lon="-121.914433009" visible="true"><tag k="addr:housenumber" v="12083" /><tag k="addr:postcode" v="94586" /><tag k="addr:city" v="Sunol" /><tag k="addr:street" v="Ruth Glen" /></node><node id="-446087" lat="37.6271907318" lon="-121.914638385" visible="true"><tag k="addr:housenumber" v="12087" /><tag k="addr:postcode" v="94586" /><tag k="addr:city" v="Sunol" /><tag k="addr:street" v="Ruth Glen" /></node><node id="-446088" lat="37.6271112298" lon="-121.912436819" visible="true"><tag k="addr:housenumber" v="2383" /><tag k="addr:postcode" v="94586" /><tag k="addr:city" v="Sunol" /><tag k="addr:street" v="Fern Terrace" /></node><node id="-446089" lat="37.6271206533" lon="-121.913030933" visible="true"><tag k="addr:housenumber" v="2394" /><tag k="addr:postcode" v="94586" /><tag k="addr:city" v="Sunol" /><tag k="addr:street" v="Fern Terrace" /></node><node id="-446090" lat="37.6269862559" lon="-121.914168346" visible="true"><tag k="addr:housenumber" v="12074" /><tag k="addr:postcode" v="94586" /><tag k="addr:city" v="Sunol" /><tag k="addr:street" v="Ruth Glen" /></node><node id="-446091" lat="37.6268769629" lon="-121.912704461" visible="true"><tag k="addr:housenumber" v="2365" /><tag k="addr:postcode" v="94586" /><tag k="addr:city" v="Sunol" /><tag k="addr:street" v="Fern Terrace" /></node><node id="-446092" lat="37.6268930772" lon="-121.914500052" visible="true"><tag k="addr:housenumber" v="12074" /><tag k="addr:postcode" v="94586" /><tag k="addr:city" v="Sunol" /><tag k="addr:street" v="Ruth Glen" /></node><node id="-446093" lat="37.6269199695" lon="-121.911756291" visible="true"><tag k="addr:housenumber" v="2367" /><tag k="addr:postcode" v="94586" /><tag k="addr:city" v="Sunol" /><tag k="addr:street" v="Kilkare Road" /></node><node id="-446094" lat="37.6267608695" lon="-121.914700409" visible="true"><tag k="addr:housenumber" v="12080" /><tag k="addr:postcode" v="94586" /><tag k="addr:city" v="Sunol" /><tag k="addr:street" v="Ruth Glen" /></node><node id="-446095" lat="37.6268386992" lon="-121.91229189" visible="true"><tag k="addr:housenumber" v="2365" /><tag k="addr:postcode" v="94586" /><tag k="addr:city" v="Sunol" /><tag k="addr:street" v="Fern Terrace" /></node><node id="-446096" lat="37.6267361573" lon="-121.911674749" visible="true"><tag k="addr:housenumber" v="2349" /><tag k="addr:postcode" v="94586" /><tag k="addr:city" v="Sunol" /><tag k="addr:street" v="Kilkare Road" /></node><node id="-446097" lat="37.6263047406" lon="-121.911881336" visible="true"><tag k="addr:housenumber" v="11" /><tag k="addr:postcode" v="94586" /><tag k="addr:city" v="Sunol" /><tag k="addr:street" v="Kilkare Road" /></node><node id="-446098" lat="37.6265641277" lon="-121.911598529" visible="true"><tag k="addr:housenumber" v="2335" /><tag k="addr:postcode" v="94586" /><tag k="addr:city" v="Sunol" /><tag k="addr:street" v="Kilkare Road" /></node><node id="-446099" lat="37.6263300224" lon="-121.911489788" visible="true"><tag k="addr:housenumber" v="2323" /><tag k="addr:postcode" v="94586" /><tag k="addr:city" v="Sunol" /><tag k="addr:street" v="Kilkare Road" /></node><node id="-446100" lat="37.6259661311" lon="-121.911226337" visible="true"><tag k="addr:housenumber" v="2315" /><tag k="addr:postcode" v="94586" /><tag k="addr:city" v="Sunol" /><tag k="addr:street" v="Kilkare Road" /></node><node id="-446101" lat="37.6257198077" lon="-121.911461336" visible="true"><tag k="addr:housenumber" v="2290" /><tag k="addr:postcode" v="94586" /><tag k="addr:city" v="Sunol" /><tag k="addr:street" v="Kilkare Road" /></node><node id="-446102" lat="37.6255282067" lon="-121.911316731" visible="true"><tag k="addr:housenumber" v="2278" /><tag k="addr:postcode" v="94586" /><tag k="addr:city" v="Sunol" /><tag k="addr:street" v="Kilkare Road" /></node><node id="-446103" lat="37.6254202036" lon="-121.910572553" visible="true"><tag k="addr:housenumber" v="2263" /><tag k="addr:postcode" v="94586" /><tag k="addr:city" v="Sunol" /><tag k="addr:street" v="Kilkare Road" /></node><node id="-446104" lat="37.6253771812" lon="-121.911137679" visible="true"><tag k="addr:housenumber" v="2262" /><tag k="addr:postcode" v="94586" /><tag k="addr:city" v="Sunol" /><tag k="addr:street" v="Kilkare Road" /></node><node id="-446105" lat="37.6247352213" lon="-121.910003246" visible="true"><tag k="addr:housenumber" v="2221" /><tag k="addr:postcode" v="94586" /><tag k="addr:city" v="Sunol" /><tag k="addr:street" v="Kilkare Road" /></node><node id="-446106" lat="37.624511691" lon="-121.909744693" visible="true"><tag k="addr:housenumber" v="2209" /><tag k="addr:postcode" v="94586" /><tag k="addr:city" v="Sunol" /><tag k="addr:street" v="Kilkare Road" /></node><node id="-446107" lat="37.6181066933" lon="-121.900728907" visible="true"><tag k="addr:housenumber" v="1441" /><tag k="addr:postcode" v="94586" /><tag k="addr:city" v="Sunol" /><tag k="addr:street" v="Kilkare Road" /></node><node id="-446113" lat="37.6148116607" lon="-121.899234427" visible="true"><tag k="addr:housenumber" v="1313" /><tag k="addr:postcode" v="94586" /><tag k="addr:city" v="Sunol" /><tag k="addr:street" v="Kilkare Road" /></node><node id="-446115" lat="37.6136648741" lon="-121.899286251" visible="true"><tag k="addr:housenumber" v="1300" /><tag k="addr:postcode" v="94586" /><tag k="addr:city" v="Sunol" /><tag k="addr:street" v="Kilkare Road" /></node><node id="-446116" lat="37.612717954" lon="-121.89924991" visible="true"><tag k="addr:housenumber" v="1190" /><tag k="addr:postcode" v="94586" /><tag k="addr:city" v="Sunol" /><tag k="addr:street" v="Kilkare Road" /></node><node id="-446117" lat="37.6127105459" lon="-121.901176503" visible="true"><tag k="addr:housenumber" v="1200" /><tag k="addr:postcode" v="94586" /><tag k="addr:city" v="Sunol" /><tag k="addr:street" v="Kilkare Road" /></node><node id="-446118" lat="37.6129606027" lon="-121.898656918" visible="true"><tag k="addr:housenumber" v="1220" /><tag k="addr:postcode" v="94586" /><tag k="addr:city" v="Sunol" /><tag k="addr:street" v="Kilkare Road" /></node><node id="-446119" lat="37.6122349794" lon="-121.898364843" visible="true"><tag k="addr:housenumber" v="1180" /><tag k="addr:postcode" v="94586" /><tag k="addr:city" v="Sunol" /><tag k="addr:street" v="Kilkare Road" /></node><node id="-446121" lat="37.6123983028" lon="-121.874149239" visible="true"><tag k="addr:housenumber" v="9480" /><tag k="addr:postcode" v="94586" /><tag k="addr:city" v="Sunol" /><tag k="addr:street" v="Pleasanton Sunol Road" /></node><node id="-446122" lat="37.6119035667" lon="-121.897459254" visible="true"><tag k="addr:housenumber" v="1103" /><tag k="addr:postcode" v="94586" /><tag k="addr:city" v="Sunol" /><tag k="addr:street" v="Kilkare Road" /></node><node id="-446123" lat="37.6111133652" lon="-121.898881103" visible="true"><tag k="addr:housenumber" v="1100" /><tag k="addr:postcode" v="94586" /><tag k="addr:city" v="Sunol" /><tag k="addr:street" v="Kilkare Road" /></node><node id="-446125" lat="37.6113823965" lon="-121.897094888" visible="true"><tag k="addr:housenumber" v="1077" /><tag k="addr:postcode" v="94586" /><tag k="addr:city" v="Sunol" /><tag k="addr:street" v="Kilkare Road" /></node><node id="-446126" lat="37.6112350795" lon="-121.897688862" visible="true"><tag k="addr:housenumber" v="1078" /><tag k="addr:postcode" v="94586" /><tag k="addr:city" v="Sunol" /><tag k="addr:street" v="Kilkare Road" /></node><node id="-446127" lat="37.6096021799" lon="-121.884897987" visible="true"><tag k="addr:housenumber" v="9877" /><tag k="addr:postcode" v="94586" /><tag k="addr:city" v="Sunol" /><tag k="addr:street" v="Foothill Road" /></node><node id="-446128" lat="37.6108106185" lon="-121.897201056" visible="true"><tag k="addr:housenumber" v="1050" /><tag k="addr:postcode" v="94586" /><tag k="addr:city" v="Sunol" /><tag k="addr:street" v="Kilkare Road" /></node><node id="-446129" lat="37.6107633458" lon="-121.896401786" visible="true"><tag k="addr:housenumber" v="1011" /><tag k="addr:postcode" v="94586" /><tag k="addr:city" v="Sunol" /><tag k="addr:street" v="Kilkare Road" /></node><node id="-446132" lat="37.6073573911" lon="-121.893066581" visible="true"><tag k="addr:housenumber" v="821" /><tag k="addr:postcode" v="94586" /><tag k="addr:city" v="Sunol" /><tag k="addr:street" v="Kilkare Road" /></node><node id="-446133" lat="37.6074268516" lon="-121.895536307" visible="true"><tag k="addr:housenumber" v="822" /><tag k="addr:postcode" v="94586" /><tag k="addr:city" v="Sunol" /><tag k="addr:street" v="Kilkare Road" /></node><node id="-446134" lat="37.6071864854" lon="-121.881743843" visible="true"><tag k="addr:housenumber" v="23" /><tag k="addr:postcode" v="94586" /><tag k="addr:city" v="Sunol" /><tag k="addr:street" v="Carver Lane" /></node><node id="-446135" lat="37.5950607422" lon="-121.890978395" visible="true"><tag k="addr:housenumber" v="12169" /><tag k="addr:postcode" v="94586" /><tag k="addr:city" v="Sunol" /><tag k="addr:street" v="Foothill Road" /></node><node id="-446136" lat="37.5959591366" lon="-121.888462064" visible="true"><tag k="addr:housenumber" v="11961" /><tag k="addr:postcode" v="94586" /><tag k="addr:city" v="Sunol" /><tag k="addr:street" v="Thermal Road" /></node><node id="-446137" lat="37.5961311646" lon="-121.890267582" visible="true"><tag k="addr:housenumber" v="118" /><tag k="addr:postcode" v="94586" /><tag k="addr:city" v="Sunol" /><tag k="addr:street" v="Kilkare Road" /></node><node id="-446138" lat="37.5960437789" lon="-121.890792048" visible="true"><tag k="addr:housenumber" v="118" /><tag k="addr:postcode" v="94586" /><tag k="addr:city" v="Sunol" /><tag k="addr:street" v="Kilkare Road" /></node><node id="-446139" lat="37.5959483933" lon="-121.886699584" visible="true"><tag k="addr:housenumber" v="11771" /><tag k="addr:postcode" v="94586" /><tag k="addr:city" v="Sunol" /><tag k="addr:street" v="Foothill Road" /></node><node id="-446140" lat="37.595792073" lon="-121.889226605" visible="true"><tag k="addr:housenumber" v="83" /><tag k="addr:postcode" v="94586" /><tag k="addr:city" v="Sunol" /><tag k="addr:street" v="Kilkare Road" /></node><node id="-446141" lat="37.5951625146" lon="-121.893923608" visible="true"><tag k="addr:housenumber" v="12355" /><tag k="addr:postcode" v="94586" /><tag k="addr:city" v="Sunol" /><tag k="addr:street" v="Foothill Road" /></node><node id="-446142" lat="37.5960102807" lon="-121.890190751" visible="true"><tag k="addr:housenumber" v="112" /><tag k="addr:postcode" v="94586" /><tag k="addr:city" v="Sunol" /><tag k="addr:street" v="Kilkare Road" /></node><node id="-446143" lat="37.5957215851" lon="-121.887152926" visible="true"><tag k="addr:housenumber" v="11835" /><tag k="addr:postcode" v="94586" /><tag k="addr:city" v="Sunol" /><tag k="addr:street" v="Foothill Road" /></node><node id="-446144" lat="37.5959148187" lon="-121.890726709" visible="true"><tag k="addr:housenumber" v="112" /><tag k="addr:postcode" v="94586" /><tag k="addr:city" v="Sunol" /><tag k="addr:street" v="Kilkare Road" /></node><node id="-446145" lat="37.5950845921" lon="-121.891829714" visible="true"><tag k="addr:housenumber" v="12181" /><tag k="addr:postcode" v="94586" /><tag k="addr:city" v="Sunol" /><tag k="addr:street" v="Foothill Road" /></node><node id="-446146" lat="37.5958082415" lon="-121.886886693" visible="true"><tag k="addr:housenumber" v="11797" /><tag k="addr:postcode" v="94586" /><tag k="addr:city" v="Sunol" /><tag k="addr:street" v="Foothill Road" /></node><node id="-446147" lat="37.5956374996" lon="-121.890306209" visible="true"><tag k="addr:housenumber" v="86" /><tag k="addr:postcode" v="94586" /><tag k="addr:city" v="Sunol" /><tag k="addr:street" v="Kilkare Road" /></node><node id="-446148" lat="37.5951738875" lon="-121.884916024" visible="true"><tag k="addr:housenumber" v="174" /><tag k="addr:postcode" v="94586" /><tag k="addr:city" v="Sunol" /><tag k="addr:street" v="Bond Street" /></node><node id="-446149" lat="37.5955758115" lon="-121.887341537" visible="true"><tag k="addr:housenumber" v="11847" /><tag k="addr:postcode" v="94586" /><tag k="addr:city" v="Sunol" /><tag k="addr:street" v="Foothill Road" /></node><node id="-446150" lat="37.5954686624" lon="-121.887513114" visible="true"><tag k="addr:housenumber" v="11865" /><tag k="addr:postcode" v="94586" /><tag k="addr:city" v="Sunol" /><tag k="addr:street" v="Foothill Road" /></node><node id="-446151" lat="37.5952793882" lon="-121.888673974" visible="true"><tag k="addr:housenumber" v="11973" /><tag k="addr:postcode" v="94586" /><tag k="addr:city" v="Sunol" /><tag k="addr:street" v="Foothill Road" /></node><node id="-446152" lat="37.5953415671" lon="-121.887711641" visible="true"><tag k="addr:housenumber" v="11873" /><tag k="addr:postcode" v="94586" /><tag k="addr:city" v="Sunol" /><tag k="addr:street" v="Foothill Road" /></node><node id="-446153" lat="37.5954476979" lon="-121.885210217" visible="true"><tag k="addr:housenumber" v="130" /><tag k="addr:postcode" v="94586" /><tag k="addr:city" v="Sunol" /><tag k="addr:street" v="Bond Street" /></node><node id="-446154" lat="37.5951367235" lon="-121.88789056" visible="true"><tag k="addr:housenumber" v="11885" /><tag k="addr:postcode" v="94586" /><tag k="addr:city" v="Sunol" /><tag k="addr:street" v="Foothill Road" /></node><node id="-446155" lat="37.5949561929" lon="-121.885721515" visible="true"><tag k="addr:housenumber" v="100" /><tag k="addr:postcode" v="94586" /><tag k="addr:city" v="Sunol" /><tag k="addr:street" v="Bond Street" /></node><node id="-446156" lat="37.5950589765" lon="-121.889532204" visible="true"><tag k="addr:housenumber" v="52" /><tag k="addr:postcode" v="94586" /><tag k="addr:city" v="Sunol" /><tag k="addr:street" v="Kilkare Road" /></node><node id="-446157" lat="37.5948169528" lon="-121.885470045" visible="true"><tag k="addr:housenumber" v="175" /><tag k="addr:postcode" v="94586" /><tag k="addr:city" v="Sunol" /><tag k="addr:street" v="Bond Street" /></node><node id="-446158" lat="37.5946276542" lon="-121.893557446" visible="true"><tag k="addr:housenumber" v="12329" /><tag k="addr:postcode" v="94586" /><tag k="addr:city" v="Sunol" /><tag k="addr:street" v="Foothill Road" /></node><node id="-446159" lat="37.5948953078" lon="-121.888713206" visible="true"><tag k="addr:housenumber" v="11977" /><tag k="addr:postcode" v="94586" /><tag k="addr:city" v="Sunol" /><tag k="addr:street" v="Foothill Road" /></node><node id="-446160" lat="37.5945767957" lon="-121.889753299" visible="true"><tag k="addr:housenumber" v="46" /><tag k="addr:postcode" v="94586" /><tag k="addr:city" v="Sunol" /><tag k="addr:street" v="Kilkare Road" /></node><node id="-446161" lat="37.5946825358" lon="-121.888548318" visible="true"><tag k="addr:housenumber" v="11989" /><tag k="addr:postcode" v="94586" /><tag k="addr:city" v="Sunol" /><tag k="addr:street" v="Foothill Road" /></node><node id="-446162" lat="37.5944329689" lon="-121.892998527" visible="true"><tag k="addr:housenumber" v="12269" /><tag k="addr:postcode" v="94586" /><tag k="addr:city" v="Sunol" /><tag k="addr:street" v="Foothill Road" /></node><node id="-446163" lat="37.5944053064" lon="-121.892360701" visible="true"><tag k="addr:housenumber" v="12257" /><tag k="addr:postcode" v="94586" /><tag k="addr:city" v="Sunol" /><tag k="addr:street" v="Foothill Road" /></node><node id="-446164" lat="37.5943934097" lon="-121.892103447" visible="true"><tag k="addr:housenumber" v="12245" /><tag k="addr:postcode" v="94586" /><tag k="addr:city" v="Sunol" /><tag k="addr:street" v="Foothill Road" /></node><node id="-446165" lat="37.594189512" lon="-121.886045657" visible="true"><tag k="addr:housenumber" v="233" /><tag k="addr:postcode" v="94586" /><tag k="addr:city" v="Sunol" /><tag k="addr:street" v="Bond Street" /></node><node id="-446166" lat="37.5944044164" lon="-121.89335006" visible="true"><tag k="addr:housenumber" v="12315" /><tag k="addr:postcode" v="94586" /><tag k="addr:city" v="Sunol" /><tag k="addr:street" v="Foothill Road" /></node><node id="-446167" lat="37.5944208939" lon="-121.885659526" visible="true"><tag k="addr:housenumber" v="199" /><tag k="addr:postcode" v="94586" /><tag k="addr:city" v="Sunol" /><tag k="addr:street" v="Bond Street" /></node><node id="-446168" lat="37.5942503739" lon="-121.887230447" visible="true"><tag k="addr:housenumber" v="11925" /><tag k="addr:postcode" v="94586" /><tag k="addr:city" v="Sunol" /><tag k="addr:street" v="Main Street" /></node><node id="-446169" lat="37.5941246" lon="-121.886650438" visible="true"><tag k="addr:housenumber" v="11853" /><tag k="addr:postcode" v="94586" /><tag k="addr:city" v="Sunol" /><tag k="addr:street" v="Main Street" /></node><node id="-446170" lat="37.5938692468" lon="-121.890807263" visible="true"><tag k="addr:housenumber" v="6" /><tag k="addr:postcode" v="94586" /><tag k="addr:city" v="Sunol" /><tag k="addr:street" v="Kilkare Road" /></node><node id="-446171" lat="37.5941159225" lon="-121.885648897" visible="true"><tag k="addr:housenumber" v="247" /><tag k="addr:postcode" v="94586" /><tag k="addr:city" v="Sunol" /><tag k="addr:street" v="Bond Street" /></node><node id="-446172" lat="37.5937478567" lon="-121.888155177" visible="true"><tag k="addr:housenumber" v="11930" /><tag k="addr:postcode" v="94586" /><tag k="addr:city" v="Sunol" /><tag k="addr:street" v="Main Street" /></node><node id="-446173" lat="37.593676281" lon="-121.888363002" visible="true"><tag k="addr:housenumber" v="11984" /><tag k="addr:postcode" v="94586" /><tag k="addr:city" v="Sunol" /><tag k="addr:street" v="Main Street" /></node><node id="-446174" lat="37.5934338754" lon="-121.887190789" visible="true"><tag k="addr:housenumber" v="11870" /><tag k="addr:postcode" v="94586" /><tag k="addr:city" v="Sunol" /><tag k="addr:street" v="Main Street" /></node><node id="-446175" lat="37.5933679148" lon="-121.886779124" visible="true"><tag k="addr:housenumber" v="11842" /><tag k="addr:postcode" v="94586" /><tag k="addr:city" v="Sunol" /><tag k="addr:street" v="Main Street" /></node><node id="-446176" lat="37.5933193398" lon="-121.886529573" visible="true"><tag k="addr:housenumber" v="11820" /><tag k="addr:postcode" v="94586" /><tag k="addr:city" v="Sunol" /><tag k="addr:street" v="Main Street" /></node><node id="-446177" lat="37.5932860816" lon="-121.88634979" visible="true"><tag k="addr:housenumber" v="11780" /><tag k="addr:postcode" v="94586" /><tag k="addr:city" v="Sunol" /><tag k="addr:street" v="Main Street" /></node><node id="-446178" lat="37.5932261076" lon="-121.886065232" visible="true"><tag k="addr:housenumber" v="11768" /><tag k="addr:postcode" v="94586" /><tag k="addr:city" v="Sunol" /><tag k="addr:street" v="Main Street" /></node><node id="-446179" lat="37.6355010227" lon="-121.919205916" visible="true"><tag k="addr:housenumber" v="2955" /><tag k="addr:postcode" v="94586" /><tag k="addr:city" v="Sunol" /><tag k="addr:street" v="Singalong Way" /></node><node id="-446180" lat="37.6353204653" lon="-121.918817526" visible="true"><tag k="addr:housenumber" v="2947" /><tag k="addr:postcode" v="94586" /><tag k="addr:city" v="Sunol" /><tag k="addr:street" v="Singalong Way" /></node><node id="-446181" lat="37.6347360179" lon="-121.917923057" visible="true"><tag k="addr:housenumber" v="2913" /><tag k="addr:postcode" v="94586" /><tag k="addr:city" v="Sunol" /><tag k="addr:street" v="Singalong Way" /></node><node id="-446182" lat="37.6344535212" lon="-121.917752997" visible="true"><tag k="addr:housenumber" v="2885" /><tag k="addr:postcode" v="94586" /><tag k="addr:city" v="Sunol" /><tag k="addr:street" v="Singalong Way" /></node><node id="-446184" lat="37.6358424573" lon="-121.919518209" visible="true"><tag k="addr:housenumber" v="2992" /><tag k="addr:postcode" v="94586" /><tag k="addr:city" v="Sunol" /><tag k="addr:street" v="Singalong Way" /></node><node id="-446185" lat="37.6315455092" lon="-121.9145413" visible="true"><tag k="addr:housenumber" v="2475" /><tag k="addr:postcode" v="94586" /><tag k="addr:city" v="Sunol" /><tag k="addr:street" v="Singalong Way" /></node><node id="-446191" lat="37.6197577738" lon="-121.903741106" visible="true"><tag k="addr:housenumber" v="1929" /><tag k="addr:postcode" v="94586" /><tag k="addr:city" v="Sunol" /><tag k="addr:street" v="Kilkare Road" /></node><node id="-446192" lat="37.6222439957" lon="-121.90647463" visible="true"><tag k="addr:housenumber" v="2017" /><tag k="addr:postcode" v="94586" /><tag k="addr:city" v="Sunol" /><tag k="addr:street" v="Kilkare Road" /></node><node id="-446193" lat="37.6220416377" lon="-121.906345791" visible="true"><tag k="addr:housenumber" v="2011" /><tag k="addr:postcode" v="94586" /><tag k="addr:city" v="Sunol" /><tag k="addr:street" v="Kilkare Road" /></node><node id="-446194" lat="37.621735517" lon="-121.906166859" visible="true"><tag k="addr:housenumber" v="2005" /><tag k="addr:postcode" v="94586" /><tag k="addr:city" v="Sunol" /><tag k="addr:street" v="Kilkare Road" /></node><node id="-446195" lat="37.622374437" lon="-121.907401746" visible="true"><tag k="addr:housenumber" v="2060" /><tag k="addr:postcode" v="94586" /><tag k="addr:city" v="Sunol" /><tag k="addr:street" v="Kilkare Road" /></node><node id="-446196" lat="37.6241540176" lon="-121.908786848" visible="true"><tag k="addr:housenumber" v="2155" /><tag k="addr:postcode" v="94586" /><tag k="addr:city" v="Sunol" /><tag k="addr:street" v="Kilkare Road" /></node><node id="-446197" lat="37.6207023435" lon="-121.906470747" visible="true"><tag k="addr:housenumber" v="1930" /><tag k="addr:postcode" v="94586" /><tag k="addr:city" v="Sunol" /><tag k="addr:street" v="Kilkare Road" /></node><node id="-446198" lat="37.6220819477" lon="-121.907116263" visible="true"><tag k="addr:housenumber" v="2022" /><tag k="addr:postcode" v="94586" /><tag k="addr:city" v="Sunol" /><tag k="addr:street" v="Kilkare Road" /></node><node id="-446199" lat="37.5953036216" lon="-121.888256664" visible="true"><tag k="addr:housenumber" v="75" /><tag k="addr:postcode" v="94586" /><tag k="addr:city" v="Sunol" /><tag k="addr:street" v="Singalong Way" /></node><node id="-446200" lat="37.5955450447" lon="-121.888421807" visible="true"><tag k="addr:housenumber" v="83" /><tag k="addr:postcode" v="94586" /><tag k="addr:city" v="Sunol" /><tag k="addr:street" v="Singalong Way" /></node><node id="-446201" lat="37.6129293477" lon="-121.896976935" visible="true"><tag k="addr:housenumber" v="1103" /><tag k="addr:postcode" v="94586" /><tag k="addr:city" v="Sunol" /><tag k="addr:street" v="Singalong Way" /></node><node id="-446202" lat="37.6111438057" lon="-121.895888346" visible="true"><tag k="addr:housenumber" v="987" /><tag k="addr:postcode" v="94586" /><tag k="addr:city" v="Sunol" /><tag k="addr:street" v="Singalong Way" /></node><node id="-446203" lat="37.6115469031" lon="-121.895945444" visible="true"><tag k="addr:housenumber" v="1011" /><tag k="addr:postcode" v="94586" /><tag k="addr:city" v="Sunol" /><tag k="addr:street" v="Singalong Way" /></node><node id="-446204" lat="37.6106639959" lon="-121.895656429" visible="true"><tag k="addr:housenumber" v="975" /><tag k="addr:postcode" v="94586" /><tag k="addr:city" v="Sunol" /><tag k="addr:street" v="Singalong Way" /></node><node id="-446205" lat="37.6117147811" lon="-121.898646107" visible="true"><tag k="addr:housenumber" v="1078" /><tag k="addr:postcode" v="94586" /><tag k="addr:city" v="Sunol" /><tag k="addr:street" v="Singalong Way" /></node><node id="-446206" lat="37.6041860403" lon="-121.890154113" visible="true"><tag k="addr:housenumber" v="589" /><tag k="addr:postcode" v="94586" /><tag k="addr:city" v="Sunol" /><tag k="addr:street" v="Singalong Way" /></node><node id="-446207" lat="37.6050550426" lon="-121.890043224" visible="true"><tag k="addr:housenumber" v="615" /><tag k="addr:postcode" v="94586" /><tag k="addr:city" v="Sunol" /><tag k="addr:street" v="Singalong Way" /></node><node id="-446208" lat="37.63247136" lon="-121.915144152" visible="true"><tag k="addr:housenumber" v="2489" /><tag k="addr:postcode" v="94586" /><tag k="addr:city" v="Sunol" /><tag k="addr:street" v="Singalong Way" /></node><node id="-446209" lat="37.6333389818" lon="-121.915279936" visible="true"><tag k="addr:housenumber" v="2539" /><tag k="addr:postcode" v="94586" /><tag k="addr:city" v="Sunol" /><tag k="addr:street" v="Singalong Way" /></node><node id="-446210" lat="37.6336121514" lon="-121.915563467" visible="true"><tag k="addr:housenumber" v="2547" /><tag k="addr:postcode" v="94586" /><tag k="addr:city" v="Sunol" /><tag k="addr:street" v="Singalong Way" /></node><node id="-446211" lat="37.6338462963" lon="-121.915806498" visible="true"><tag k="addr:housenumber" v="2559" /><tag k="addr:postcode" v="94586" /><tag k="addr:city" v="Sunol" /><tag k="addr:street" v="Singalong Way" /></node><node id="-446212" lat="37.5989023592" lon="-121.945108562" visible="true"><tag k="addr:housenumber" v="38000" /><tag k="addr:postcode" v="94586" /><tag k="addr:city" v="Sunol" /><tag k="addr:street" v="Palomares Road" /></node><node id="-446213" lat="37.6278304565" lon="-121.91439771" visible="true"><tag k="addr:housenumber" v="2383" /><tag k="addr:postcode" v="94586" /><tag k="addr:city" v="Sunol" /><tag k="addr:street" v="Fern Terrace" /></node><node id="-446214" lat="37.6284384991" lon="-121.914588731" visible="true"><tag k="addr:housenumber" v="2415" /><tag k="addr:postcode" v="94586" /><tag k="addr:city" v="Sunol" /><tag k="addr:street" v="Fern Terrace" /></node><node id="-446215" lat="37.6295392135" lon="-121.916489953" visible="true"><tag k="addr:housenumber" v="2456" /><tag k="addr:postcode" v="94586" /><tag k="addr:city" v="Sunol" /><tag k="addr:street" v="Fern Terrace" /></node><node id="-446216" lat="37.6290664785" lon="-121.915099185" visible="true"><tag k="addr:housenumber" v="12047" /><tag k="addr:postcode" v="94586" /><tag k="addr:city" v="Sunol" /><tag k="addr:street" v="Ruth Glen Terrace" /></node><node id="-446217" lat="37.6292121354" lon="-121.914547538" visible="true"><tag k="addr:housenumber" v="12007" /><tag k="addr:postcode" v="94586" /><tag k="addr:city" v="Sunol" /><tag k="addr:street" v="Ruth Glen Terrace" /></node><node id="-446218" lat="37.6288575745" lon="-121.9166506" visible="true"><tag k="addr:housenumber" v="12067" /><tag k="addr:postcode" v="94586" /><tag k="addr:city" v="Sunol" /><tag k="addr:street" v="Ruth Glen Terrace" /></node><node id="-446219" lat="37.6286168342" lon="-121.916895277" visible="true"><tag k="addr:housenumber" v="12075" /><tag k="addr:postcode" v="94586" /><tag k="addr:city" v="Sunol" /><tag k="addr:street" v="Ruth Glen Terrace" /></node><node id="-446220" lat="37.6283200193" lon="-121.917188737" visible="true"><tag k="addr:housenumber" v="12083" /><tag k="addr:postcode" v="94586" /><tag k="addr:city" v="Sunol" /><tag k="addr:street" v="Ruth Glen Terrace" /></node><node id="-446221" lat="37.6281178202" lon="-121.917523877" visible="true"><tag k="addr:housenumber" v="12087" /><tag k="addr:postcode" v="94586" /><tag k="addr:city" v="Sunol" /><tag k="addr:street" v="Ruth Glen Terrace" /></node><node id="-446222" lat="37.6272186129" lon="-121.917157794" visible="true"><tag k="addr:housenumber" v="12080" /><tag k="addr:postcode" v="94586" /><tag k="addr:city" v="Sunol" /><tag k="addr:street" v="Ruth Glen Terrace" /></node><node id="-446223" lat="37.6275177056" lon="-121.916674948" visible="true"><tag k="addr:housenumber" v="12074" /><tag k="addr:postcode" v="94586" /><tag k="addr:city" v="Sunol" /><tag k="addr:street" v="Ruth Glen Terrace" /></node><node id="-446224" lat="37.6287905655" lon="-121.915632344" visible="true"><tag k="addr:housenumber" v="2420" /><tag k="addr:postcode" v="94586" /><tag k="addr:city" v="Sunol" /><tag k="addr:street" v="Fern Terrace" /></node><node id="-446225" lat="37.6277702015" lon="-121.915453412" visible="true"><tag k="addr:housenumber" v="2394" /><tag k="addr:postcode" v="94586" /><tag k="addr:city" v="Sunol" /><tag k="addr:street" v="Fern Terrace" /></node><node id="-446226" lat="37.631845955" lon="-121.916727782" visible="true"><tag k="addr:housenumber" v="2511" /><tag k="addr:postcode" v="94586" /><tag k="addr:city" v="Sunol" /><tag k="addr:street" v="Magnolia Terrace" /></node><node id="-446227" lat="37.6320916948" lon="-121.916736726" visible="true"><tag k="addr:housenumber" v="2527" /><tag k="addr:postcode" v="94586" /><tag k="addr:city" v="Sunol" /><tag k="addr:street" v="Magnolia Terrace" /></node><node id="-446228" lat="37.6321715168" lon="-121.917076836" visible="true"><tag k="addr:housenumber" v="2541" /><tag k="addr:postcode" v="94586" /><tag k="addr:city" v="Sunol" /><tag k="addr:street" v="Magnolia Terrace" /></node><node id="-446229" lat="37.6325514521" lon="-121.916889215" visible="true"><tag k="addr:housenumber" v="2549" /><tag k="addr:postcode" v="94586" /><tag k="addr:city" v="Sunol" /><tag k="addr:street" v="Magnolia Terrace" /></node><node id="-446230" lat="37.632575415" lon="-121.917751127" visible="true"><tag k="addr:housenumber" v="12015" /><tag k="addr:postcode" v="94586" /><tag k="addr:city" v="Sunol" /><tag k="addr:street" v="Cherokee Way" /></node><node id="-446231" lat="37.6314993745" lon="-121.916457676" visible="true"><tag k="addr:housenumber" v="12055" /><tag k="addr:postcode" v="94586" /><tag k="addr:city" v="Sunol" /><tag k="addr:street" v="Wisteria Terrace" /></node><node id="-446232" lat="37.6313078483" lon="-121.917925203" visible="true"><tag k="addr:housenumber" v="2508" /><tag k="addr:postcode" v="94586" /><tag k="addr:city" v="Sunol" /><tag k="addr:street" v="Magnolia Terrace" /></node><node id="-446233" lat="37.6311554614" lon="-121.916142981" visible="true"><tag k="addr:housenumber" v="2483" /><tag k="addr:postcode" v="94586" /><tag k="addr:city" v="Sunol" /><tag k="addr:street" v="Fern Terrace" /></node><node id="-446234" lat="37.6305004011" lon="-121.917502647" visible="true"><tag k="addr:housenumber" v="2488" /><tag k="addr:postcode" v="94586" /><tag k="addr:city" v="Sunol" /><tag k="addr:street" v="Fern Terrace" /></node><node id="-446235" lat="37.6321177503" lon="-121.914978378" visible="true"><tag k="addr:housenumber" v="2481" /><tag k="addr:postcode" v="94586" /><tag k="addr:city" v="Sunol" /><tag k="addr:street" v="Singalong Way" /></node><node id="-446236" lat="37.6300085545" lon="-121.916876489" visible="true"><tag k="addr:housenumber" v="2472" /><tag k="addr:postcode" v="94586" /><tag k="addr:city" v="Sunol" /><tag k="addr:street" v="Fern Terrace" /></node><node id="-446237" lat="37.6274755399" lon="-121.914909416" visible="true"><tag k="addr:housenumber" v="2365" /><tag k="addr:postcode" v="94586" /><tag k="addr:city" v="Sunol" /><tag k="addr:street" v="Fern Terrace" /></node><node id="-446238" lat="37.6166800535" lon="-121.900643112" visible="true"><tag k="addr:housenumber" v="1415" /><tag k="addr:postcode" v="94586" /><tag k="addr:city" v="Sunol" /><tag k="addr:street" v="Singalong Way" /></node><node id="-446239" lat="37.6130397159" lon="-121.89940408" visible="true"><tag k="addr:housenumber" v="1180" /><tag k="addr:postcode" v="94586" /><tag k="addr:city" v="Sunol" /><tag k="addr:street" v="Singalong Way" /></node><node id="-446240" lat="37.6132092309" lon="-121.900162899" visible="true"><tag k="addr:housenumber" v="1190" /><tag k="addr:postcode" v="94586" /><tag k="addr:city" v="Sunol" /><tag k="addr:street" v="Singalong Way" /></node><node id="-446241" lat="37.6129526361" lon="-121.901547465" visible="true"><tag k="addr:housenumber" v="1200" /><tag k="addr:postcode" v="94586" /><tag k="addr:city" v="Sunol" /><tag k="addr:street" v="Singalong Way" /></node><node id="-446242" lat="37.6139582282" lon="-121.900575094" visible="true"><tag k="addr:housenumber" v="1300" /><tag k="addr:postcode" v="94586" /><tag k="addr:city" v="Sunol" /><tag k="addr:street" v="Singalong Way" /></node><node id="-446243" lat="37.6137699363" lon="-121.899858528" visible="true"><tag k="addr:housenumber" v="1220" /><tag k="addr:postcode" v="94586" /><tag k="addr:city" v="Sunol" /><tag k="addr:street" v="Singalong Way" /></node><node id="-446244" lat="37.6125537626" lon="-121.898681157" visible="true"><tag k="addr:housenumber" v="1100" /><tag k="addr:postcode" v="94586" /><tag k="addr:city" v="Sunol" /><tag k="addr:street" v="Singalong Way" /></node><node id="-446245" lat="37.6095543174" lon="-121.894502036" visible="true"><tag k="addr:housenumber" v="867" /><tag k="addr:postcode" v="94586" /><tag k="addr:city" v="Sunol" /><tag k="addr:street" v="Singalong Way" /></node><node id="-446246" lat="37.609778258" lon="-121.894648124" visible="true"><tag k="addr:housenumber" v="905" /><tag k="addr:postcode" v="94586" /><tag k="addr:city" v="Sunol" /><tag k="addr:street" v="Singalong Way" /></node><node id="-446247" lat="37.6096530913" lon="-121.897024528" visible="true"><tag k="addr:housenumber" v="936" /><tag k="addr:postcode" v="94586" /><tag k="addr:city" v="Sunol" /><tag k="addr:street" v="Singalong Way" /></node><node id="-446250" lat="37.5944011081" lon="-121.887672573" visible="true"><tag k="addr:housenumber" v="11601" /><tag k="addr:postcode" v="94586" /><tag k="addr:city" v="Sunol" /><tag k="addr:street" v="Main Street" /></node><node id="-446264" lat="37.6504429013" lon="-121.977070604" visible="true"><tag k="addr:housenumber" v="31924" /><tag k="addr:postcode" v="94552" /><tag k="addr:city" v="Sunol" /><tag k="addr:street" v="Palomares Road" /></node><node id="-446271" lat="37.6254323945" lon="-121.94437904" visible="true"><tag k="addr:housenumber" v="35671" /><tag k="addr:postcode" v="94552" /><tag k="addr:city" v="Sunol" /><tag k="addr:street" v="Palomares Road" /></node><node id="-446273" lat="37.6063105994" lon="-121.946886243" visible="true"><tag k="addr:housenumber" v="37455" /><tag k="addr:postcode" v="94552" /><tag k="addr:city" v="Sunol" /><tag k="addr:street" v="Palomares Road" /></node><node id="-446305" lat="37.6685049079" lon="-121.998698209" visible="true"><tag k="addr:housenumber" v="29240" /><tag k="addr:postcode" v="94552" /><tag k="addr:city" v="Sunol" /><tag k="addr:street" v="Palomares Road" /></node><node id="-446306" lat="37.6683274282" lon="-121.998059547" visible="true"><tag k="addr:housenumber" v="29300" /><tag k="addr:postcode" v="94552" /><tag k="addr:city" v="Sunol" /><tag k="addr:street" v="Palomares Road" /></node><node id="-446307" lat="37.6682958923" lon="-121.997343734" visible="true"><tag k="addr:housenumber" v="29480" /><tag k="addr:postcode" v="94552" /><tag k="addr:city" v="Sunol" /><tag k="addr:street" v="Palomares Road" /></node><node id="-446309" lat="37.6637845906" lon="-121.99454961" visible="true"><tag k="addr:housenumber" v="29863" /><tag k="addr:postcode" v="94552" /><tag k="addr:city" v="Sunol" /><tag k="addr:street" v="Palomares Road" /></node><node id="-446310" lat="37.6641792715" lon="-121.99508067" visible="true"><tag k="addr:housenumber" v="29715" /><tag k="addr:postcode" v="94552" /><tag k="addr:city" v="Sunol" /><tag k="addr:street" v="Palomares Road" /></node><node id="-446311" lat="37.6649839538" lon="-121.995953412" visible="true"><tag k="addr:housenumber" v="29625" /><tag k="addr:postcode" v="94552" /><tag k="addr:city" v="Sunol" /><tag k="addr:street" v="Palomares Road" /></node><node id="-446312" lat="37.6612433606" lon="-121.994168843" visible="true"><tag k="addr:housenumber" v="30259" /><tag k="addr:postcode" v="94552" /><tag k="addr:city" v="Sunol" /><tag k="addr:street" v="Palomares Road" /></node><node id="-446313" lat="37.6558986729" lon="-121.987147769" visible="true"><tag k="addr:housenumber" v="31136" /><tag k="addr:postcode" v="94552" /><tag k="addr:city" v="Sunol" /><tag k="addr:street" v="Palomares Road" /></node><node id="-446314" lat="37.6560249983" lon="-121.989048073" visible="true"><tag k="addr:housenumber" v="31089" /><tag k="addr:postcode" v="94552" /><tag k="addr:city" v="Sunol" /><tag k="addr:street" v="Palomares Road" /></node><node id="-446315" lat="37.6550738544" lon="-121.989460377" visible="true"><tag k="addr:housenumber" v="31249" /><tag k="addr:postcode" v="94552" /><tag k="addr:city" v="Sunol" /><tag k="addr:street" v="Palomares Road" /></node><node id="-446316" lat="37.6557666458" lon="-121.988805092" visible="true"><tag k="addr:housenumber" v="31111" /><tag k="addr:postcode" v="94552" /><tag k="addr:city" v="Sunol" /><tag k="addr:street" v="Palomares Road" /></node><node id="-446317" lat="37.6553797138" lon="-121.988587199" visible="true"><tag k="addr:housenumber" v="31135" /><tag k="addr:postcode" v="94552" /><tag k="addr:city" v="Sunol" /><tag k="addr:street" v="Palomares Road" /></node><node id="-446318" lat="37.6549070825" lon="-121.990291743" visible="true"><tag k="addr:housenumber" v="31247" /><tag k="addr:postcode" v="94552" /><tag k="addr:city" v="Sunol" /><tag k="addr:street" v="Palomares Road" /></node><node id="-446319" lat="37.654874698" lon="-121.988958352" visible="true"><tag k="addr:housenumber" v="31253" /><tag k="addr:postcode" v="94552" /><tag k="addr:city" v="Sunol" /><tag k="addr:street" v="Palomares Road" /></node><node id="-446320" lat="37.6546623935" lon="-121.988082501" visible="true"><tag k="addr:housenumber" v="32457" /><tag k="addr:postcode" v="94552" /><tag k="addr:city" v="Sunol" /><tag k="addr:street" v="Palomares Road" /></node><node id="-446321" lat="37.6518640104" lon="-121.984382175" visible="true"><tag k="addr:housenumber" v="32485" /><tag k="addr:postcode" v="94552" /><tag k="addr:city" v="Sunol" /><tag k="addr:street" v="Palomares Road" /></node><node id="-446322" lat="37.649207444" lon="-121.978258145" visible="true"><tag k="addr:housenumber" v="32075" /><tag k="addr:postcode" v="94552" /><tag k="addr:city" v="Sunol" /><tag k="addr:street" v="Palomares Road" /></node><node id="-446323" lat="37.6453126456" lon="-121.970171578" visible="true"><tag k="addr:housenumber" v="33315" /><tag k="addr:postcode" v="94552" /><tag k="addr:city" v="Sunol" /><tag k="addr:street" v="Palomares Road" /></node><node id="-446324" lat="37.6453959624" lon="-121.968273062" visible="true"><tag k="addr:housenumber" v="33311" /><tag k="addr:postcode" v="94552" /><tag k="addr:city" v="Sunol" /><tag k="addr:street" v="Palomares Road" /></node><node id="-446325" lat="37.6473698571" lon="-121.971027364" visible="true"><tag k="addr:housenumber" v="32888" /><tag k="addr:postcode" v="94552" /><tag k="addr:city" v="Sunol" /><tag k="addr:street" v="Palomares Road" /></node><node id="-446326" lat="37.6478828361" lon="-121.975024107" visible="true"><tag k="addr:housenumber" v="32401" /><tag k="addr:postcode" v="94552" /><tag k="addr:city" v="Sunol" /><tag k="addr:street" v="Palomares Road" /></node><node id="-446327" lat="37.6479874772" lon="-121.975861363" visible="true"><tag k="addr:housenumber" v="32385" /><tag k="addr:postcode" v="94552" /><tag k="addr:city" v="Sunol" /><tag k="addr:street" v="Palomares Road" /></node><node id="-446328" lat="37.6491293539" lon="-121.974374571" visible="true"><tag k="addr:housenumber" v="32476" /><tag k="addr:postcode" v="94552" /><tag k="addr:city" v="Sunol" /><tag k="addr:street" v="Palomares Road" /></node><node id="-446329" lat="37.6486456224" lon="-121.973309604" visible="true"><tag k="addr:housenumber" v="32684" /><tag k="addr:postcode" v="94552" /><tag k="addr:city" v="Sunol" /><tag k="addr:street" v="Palomares Road" /></node><node id="-446330" lat="37.6478187765" lon="-121.9721482" visible="true"><tag k="addr:housenumber" v="32880" /><tag k="addr:postcode" v="94552" /><tag k="addr:city" v="Sunol" /><tag k="addr:street" v="Palomares Road" /></node><node id="-446331" lat="37.6465807859" lon="-121.973196708" visible="true"><tag k="addr:housenumber" v="32777" /><tag k="addr:postcode" v="94552" /><tag k="addr:city" v="Sunol" /><tag k="addr:street" v="Palomares Road" /></node><node id="-446332" lat="37.6437236182" lon="-121.968230042" visible="true"><tag k="addr:housenumber" v="33320" /><tag k="addr:postcode" v="94552" /><tag k="addr:city" v="Sunol" /><tag k="addr:street" v="Palomares Road" /></node><node id="-446333" lat="37.6277314308" lon="-121.947244825" visible="true"><tag k="addr:housenumber" v="35555" /><tag k="addr:postcode" v="94552" /><tag k="addr:city" v="Sunol" /><tag k="addr:street" v="Palomares Road" /></node><node id="-446334" lat="37.6399608937" lon="-121.963717062" visible="true"><tag k="addr:housenumber" v="33833" /><tag k="addr:postcode" v="94552" /><tag k="addr:city" v="Sunol" /><tag k="addr:street" v="Palomares Road" /></node><node id="-446335" lat="37.6413946262" lon="-121.965447876" visible="true"><tag k="addr:housenumber" v="33803" /><tag k="addr:postcode" v="94552" /><tag k="addr:city" v="Sunol" /><tag k="addr:street" v="Palomares Road" /></node><node id="-446336" lat="37.6349217372" lon="-121.956048986" visible="true"><tag k="addr:housenumber" v="34355" /><tag k="addr:postcode" v="94552" /><tag k="addr:city" v="Sunol" /><tag k="addr:street" v="Palomares Road" /></node><node id="-446337" lat="37.6307170518" lon="-121.947973656" visible="true"><tag k="addr:housenumber" v="34974" /><tag k="addr:postcode" v="94552" /><tag k="addr:unit" v="A" /><tag k="addr:city" v="Sunol" /><tag k="addr:street" v="Palomares Road" /></node><node id="-446338" lat="37.631888615" lon="-121.949449293" visible="true"><tag k="addr:housenumber" v="34864" /><tag k="addr:postcode" v="94552" /><tag k="addr:city" v="Sunol" /><tag k="addr:street" v="Palomares Road" /></node><node id="-446339" lat="37.6305467151" lon="-121.947428817" visible="true"><tag k="addr:housenumber" v="34974" /><tag k="addr:postcode" v="94552" /><tag k="addr:unit" v="B" /><tag k="addr:city" v="Sunol" /><tag k="addr:street" v="Palomares Road" /></node><node id="-446340" lat="37.6436234831" lon="-121.9717633" visible="true"><tag k="addr:housenumber" v="33319" /><tag k="addr:postcode" v="94552" /><tag k="addr:city" v="Sunol" /><tag k="addr:street" v="Palomares Road" /></node><node id="-446341" lat="37.6250498869" lon="-121.942213054" visible="true"><tag k="addr:housenumber" v="35700" /><tag k="addr:postcode" v="94552" /><tag k="addr:unit" v="A" /><tag k="addr:city" v="Sunol" /><tag k="addr:street" v="Palomares Road" /></node><node id="-446357" lat="37.6667849959" lon="-121.995376973" visible="true"><tag k="addr:housenumber" v="29600" /><tag k="addr:postcode" v="94552" /><tag k="addr:city" v="Sunol" /><tag k="addr:street" v="Palomares Road" /></node><node id="-446358" lat="37.6680268808" lon="-121.996609675" visible="true"><tag k="addr:housenumber" v="29524" /><tag k="addr:postcode" v="94552" /><tag k="addr:city" v="Sunol" /><tag k="addr:street" v="Palomares Road" /></node><node id="-446359" lat="37.6649711123" lon="-121.994404655" visible="true"><tag k="addr:housenumber" v="29720" /><tag k="addr:postcode" v="94552" /><tag k="addr:city" v="Sunol" /><tag k="addr:street" v="Palomares Road" /></node><node id="-446360" lat="37.6634034735" lon="-121.994221963" visible="true"><tag k="addr:housenumber" v="30011" /><tag k="addr:postcode" v="94552" /><tag k="addr:city" v="Sunol" /><tag k="addr:street" v="Palomares Road" /></node><node id="-446361" lat="37.6630892534" lon="-121.993948766" visible="true"><tag k="addr:housenumber" v="30063" /><tag k="addr:postcode" v="94552" /><tag k="addr:city" v="Sunol" /><tag k="addr:street" v="Palomares Road" /></node><node id="-446362" lat="37.6628547471" lon="-121.993631958" visible="true"><tag k="addr:housenumber" v="30103" /><tag k="addr:postcode" v="94552" /><tag k="addr:city" v="Sunol" /><tag k="addr:street" v="Palomares Road" /></node><node id="-446363" lat="37.6623439819" lon="-121.993420333" visible="true"><tag k="addr:housenumber" v="30155" /><tag k="addr:postcode" v="94552" /><tag k="addr:city" v="Sunol" /><tag k="addr:street" v="Palomares Road" /></node><node id="-446364" lat="37.661938306" lon="-121.992763488" visible="true"><tag k="addr:housenumber" v="30261" /><tag k="addr:postcode" v="94552" /><tag k="addr:city" v="Sunol" /><tag k="addr:street" v="Palomares Road" /></node><node id="-446365" lat="37.6642201019" lon="-121.992098869" visible="true"><tag k="addr:housenumber" v="30156" /><tag k="addr:postcode" v="94552" /><tag k="addr:city" v="Sunol" /><tag k="addr:street" v="Palomares Road" /></node><node id="-446366" lat="37.6648479281" lon="-121.990878429" visible="true"><tag k="addr:housenumber" v="30196" /><tag k="addr:postcode" v="94552" /><tag k="addr:city" v="Sunol" /><tag k="addr:street" v="Palomares Road" /></node><node id="-446367" lat="37.6602701695" lon="-121.991893546" visible="true"><tag k="addr:housenumber" v="30503" /><tag k="addr:postcode" v="94552" /><tag k="addr:city" v="Sunol" /><tag k="addr:street" v="Palomares Road" /></node><node id="-446368" lat="37.6607804232" lon="-121.992043889" visible="true"><tag k="addr:housenumber" v="30345" /><tag k="addr:postcode" v="94552" /><tag k="addr:city" v="Sunol" /><tag k="addr:street" v="Palomares Road" /></node><node id="-446369" lat="37.661375108" lon="-121.992560214" visible="true"><tag k="addr:housenumber" v="30313" /><tag k="addr:postcode" v="94552" /><tag k="addr:city" v="Sunol" /><tag k="addr:street" v="Palomares Road" /></node><node id="-446370" lat="37.6585505828" lon="-121.990528057" visible="true"><tag k="addr:housenumber" v="31001" /><tag k="addr:postcode" v="94552" /><tag k="addr:city" v="Sunol" /><tag k="addr:street" v="Palomares Road" /></node><node id="-446371" lat="37.659415059" lon="-121.991238194" visible="true"><tag k="addr:housenumber" v="30637" /><tag k="addr:postcode" v="94552" /><tag k="addr:city" v="Sunol" /><tag k="addr:street" v="Palomares Road" /></node><node id="-446372" lat="37.6577576572" lon="-121.989839667" visible="true"><tag k="addr:housenumber" v="31013" /><tag k="addr:postcode" v="94552" /><tag k="addr:city" v="Sunol" /><tag k="addr:street" v="Palomares Road" /></node><node id="-446373" lat="37.657182032" lon="-121.989575956" visible="true"><tag k="addr:housenumber" v="31067" /><tag k="addr:postcode" v="94552" /><tag k="addr:city" v="Sunol" /><tag k="addr:street" v="Palomares Road" /></node><node id="-446381" lat="37.6279640896" lon="-121.943226293" visible="true"><tag k="addr:housenumber" v="35680" /><tag k="addr:postcode" v="94552" /><tag k="addr:city" v="Sunol" /><tag k="addr:street" v="Palomares Road" /></node><node id="-446382" lat="37.6252307721" lon="-121.942190689" visible="true"><tag k="addr:housenumber" v="35700" /><tag k="addr:postcode" v="94552" /><tag k="addr:city" v="Sunol" /><tag k="addr:street" v="Palomares Road" /></node><node id="-446383" lat="37.6248096102" lon="-121.942466776" visible="true"><tag k="addr:housenumber" v="36180" /><tag k="addr:postcode" v="94552" /><tag k="addr:city" v="Sunol" /><tag k="addr:street" v="Palomares Road" /></node><node id="-446384" lat="37.6241412708" lon="-121.942487387" visible="true"><tag k="addr:housenumber" v="36210" /><tag k="addr:postcode" v="94552" /><tag k="addr:city" v="Sunol" /><tag k="addr:street" v="Palomares Road" /></node><node id="-446405" lat="37.5996132643" lon="-121.947996383" visible="true"><tag k="addr:housenumber" v="37789" /><tag k="addr:postcode" v="94552" /><tag k="addr:city" v="Sunol" /><tag k="addr:street" v="Palomares Road" /></node><node id="-446416" lat="37.6433302915" lon="-121.968237974" visible="true"><tag k="addr:housenumber" v="33350" /><tag k="addr:postcode" v="94552" /><tag k="addr:city" v="Sunol" /><tag k="addr:street" v="Palomares Road" /></node><node id="-446417" lat="37.6282594996" lon="-121.943655536" visible="true"><tag k="addr:housenumber" v="35650" /><tag k="addr:postcode" v="94552" /><tag k="addr:city" v="Sunol" /><tag k="addr:street" v="Palomares Road" /></node><node id="-446418" lat="37.6285954814" lon="-121.943859731" visible="true"><tag k="addr:housenumber" v="35610" /><tag k="addr:postcode" v="94552" /><tag k="addr:city" v="Sunol" /><tag k="addr:street" v="Palomares Road" /></node><node id="-446419" lat="37.6288220377" lon="-121.944115032" visible="true"><tag k="addr:housenumber" v="35600" /><tag k="addr:postcode" v="94552" /><tag k="addr:city" v="Sunol" /><tag k="addr:street" v="Palomares Road" /></node><node id="-446420" lat="37.6292262685" lon="-121.944176098" visible="true"><tag k="addr:housenumber" v="35570" /><tag k="addr:postcode" v="94552" /><tag k="addr:city" v="Sunol" /><tag k="addr:street" v="Palomares Road" /></node><node id="-446421" lat="37.6376059223" lon="-121.96208539" visible="true"><tag k="addr:housenumber" v="33853" /><tag k="addr:postcode" v="94552" /><tag k="addr:city" v="Sunol" /><tag k="addr:street" v="Palomares Road" /></node><node id="-446422" lat="37.6353831729" lon="-121.956991069" visible="true"><tag k="addr:housenumber" v="34329" /><tag k="addr:postcode" v="94552" /><tag k="addr:city" v="Sunol" /><tag k="addr:street" v="Palomares Road" /></node><node id="-446423" lat="37.636712286" lon="-121.953732636" visible="true"><tag k="addr:housenumber" v="34380" /><tag k="addr:postcode" v="94552" /><tag k="addr:city" v="Sunol" /><tag k="addr:street" v="Palomares Road" /></node><node id="-446424" lat="37.6364973357" lon="-121.95332879" visible="true"><tag k="addr:housenumber" v="34400" /><tag k="addr:postcode" v="94552" /><tag k="addr:city" v="Sunol" /><tag k="addr:street" v="Palomares Road" /></node><node id="-446425" lat="37.6361970639" lon="-121.952907911" visible="true"><tag k="addr:housenumber" v="34412" /><tag k="addr:postcode" v="94552" /><tag k="addr:city" v="Sunol" /><tag k="addr:street" v="Palomares Road" /></node><node id="-446426" lat="37.6338618792" lon="-121.952518639" visible="true"><tag k="addr:housenumber" v="34484" /><tag k="addr:postcode" v="94552" /><tag k="addr:city" v="Sunol" /><tag k="addr:street" v="Palomares Road" /></node><node id="-446427" lat="37.6340042838" lon="-121.951466196" visible="true"><tag k="addr:housenumber" v="34530" /><tag k="addr:postcode" v="94552" /><tag k="addr:city" v="Sunol" /><tag k="addr:street" v="Palomares Road" /></node><node id="-446428" lat="37.6338385682" lon="-121.951032589" visible="true"><tag k="addr:housenumber" v="34548" /><tag k="addr:postcode" v="94552" /><tag k="addr:city" v="Sunol" /><tag k="addr:street" v="Palomares Road" /></node><node id="-446429" lat="37.6332931804" lon="-121.951473547" visible="true"><tag k="addr:housenumber" v="34580" /><tag k="addr:postcode" v="94552" /><tag k="addr:city" v="Sunol" /><tag k="addr:street" v="Palomares Road" /></node><node id="-446430" lat="37.6348871977" lon="-121.953189565" visible="true"><tag k="addr:housenumber" v="34442" /><tag k="addr:postcode" v="94552" /><tag k="addr:city" v="Sunol" /><tag k="addr:street" v="Palomares Road" /></node><node id="-446431" lat="37.6342142562" lon="-121.954252366" visible="true"><tag k="addr:housenumber" v="34427" /><tag k="addr:postcode" v="94552" /><tag k="addr:city" v="Sunol" /><tag k="addr:street" v="Palomares Road" /></node><node id="-446432" lat="37.632578567" lon="-121.950833432" visible="true"><tag k="addr:housenumber" v="34700" /><tag k="addr:postcode" v="94552" /><tag k="addr:city" v="Sunol" /><tag k="addr:street" v="Palomares Road" /></node><node id="-446433" lat="37.6327791162" lon="-121.950113984" visible="true"><tag k="addr:housenumber" v="34772" /><tag k="addr:postcode" v="94552" /><tag k="addr:city" v="Sunol" /><tag k="addr:street" v="Palomares Road" /></node><node id="-446434" lat="37.632696059" lon="-121.949783562" visible="true"><tag k="addr:housenumber" v="34890" /><tag k="addr:postcode" v="94552" /><tag k="addr:city" v="Sunol" /><tag k="addr:street" v="Palomares Road" /></node><node id="-446435" lat="37.6324635717" lon="-121.949559837" visible="true"><tag k="addr:housenumber" v="34726" /><tag k="addr:postcode" v="94552" /><tag k="addr:city" v="Sunol" /><tag k="addr:street" v="Palomares Road" /></node><node id="-446436" lat="37.6308189632" lon="-121.948154698" visible="true"><tag k="addr:housenumber" v="34974" /><tag k="addr:postcode" v="94552" /><tag k="addr:city" v="Sunol" /><tag k="addr:street" v="Palomares Road" /></node><node id="-446437" lat="37.6307041852" lon="-121.945685038" visible="true"><tag k="addr:housenumber" v="35170" /><tag k="addr:postcode" v="94552" /><tag k="addr:city" v="Sunol" /><tag k="addr:street" v="Palomares Road" /></node><node id="-446438" lat="37.6295907573" lon="-121.94456401" visible="true"><tag k="addr:housenumber" v="35552" /><tag k="addr:postcode" v="94552" /><tag k="addr:city" v="Sunol" /><tag k="addr:street" v="Palomares Road" /></node><node id="-446439" lat="37.6297423767" lon="-121.94470852" visible="true"><tag k="addr:housenumber" v="35550" /><tag k="addr:postcode" v="94552" /><tag k="addr:city" v="Sunol" /><tag k="addr:street" v="Palomares Road" /></node><node id="-446440" lat="37.6153356945" lon="-121.940798075" visible="true"><tag k="addr:housenumber" v="36684" /><tag k="addr:postcode" v="94552" /><tag k="addr:city" v="Sunol" /><tag k="addr:street" v="Palomares Road" /></node><node id="-446441" lat="37.6140366472" lon="-121.939131996" visible="true"><tag k="addr:housenumber" v="37000" /><tag k="addr:postcode" v="94552" /><tag k="addr:city" v="Sunol" /><tag k="addr:street" v="Palomares Road" /></node><node id="-446442" lat="37.6415815228" lon="-121.971372901" visible="true"><tag k="addr:housenumber" v="33345" /><tag k="addr:postcode" v="94552" /><tag k="addr:city" v="Sunol" /><tag k="addr:street" v="Palomares Road" /></node><node id="-499988" lat="37.5934816893" lon="-121.887358289" visible="true"><tag k="addr:housenumber" v="11882" /><tag k="addr:postcode" v="94586" /><tag k="addr:city" v="Sunol" /><tag k="addr:street" v="Main Street" /></node><node id="-499989" lat="37.5936629519" lon="-121.888540458" visible="true"><tag k="addr:housenumber" v="11988" /><tag k="addr:postcode" v="94586" /><tag k="addr:city" v="Sunol" /><tag k="addr:street" v="Main Street" /></node><node id="-501084" lat="37.5934915528" lon="-121.887579926" visible="true"><tag k="addr:housenumber" v="11896" /><tag k="addr:postcode" v="94586" /><tag k="addr:city" v="Sunol" /><tag k="addr:street" v="Main Street" /></node><node id="-501085" lat="37.5928988225" lon="-121.887058159" visible="true"><tag k="addr:housenumber" v="11803" /><tag k="addr:postcode" v="94586" /><tag k="addr:city" v="Sunol" /><tag k="addr:street" v="Main Street" /></node><node id="-501088" lat="37.5938605598" lon="-121.887898326" visible="true"><tag k="addr:housenumber" v="11922" /><tag k="addr:postcode" v="94586" /><tag k="addr:city" v="Sunol" /><tag k="addr:street" v="Main Street" /></node><node id="-501183" lat="37.5935000244" lon="-121.875798114" visible="true"><tag k="addr:housenumber" v="11640" /><tag k="addr:postcode" v="94586" /><tag k="addr:city" v="Sunol" /><tag k="addr:street" v="Pleasanton Sunol Road" /></node><node id="-501754" lat="37.6046906891" lon="-121.950265578" visible="true"><tag k="addr:housenumber" v="37455" /><tag k="addr:postcode" v="94587" /><tag k="addr:city" v="Sunol" /><tag k="addr:street" v="Palomares Road" /></node><node id="-502090" lat="37.5972040967" lon="-121.920281674" visible="true"><tag k="addr:housenumber" v="7001" /><tag k="addr:postcode" v="94586" /><tag k="addr:city" v="Sunol" /><tag k="addr:street" v="Niles Canyon Road" /></node></osm>